_id,Gemeente,CBS gemeentecode,Stembureau of Afgiftepunt,Nummer stembureau of afgiftepunt,Naam stembureau of afgiftepunt,Gebruikersdoel het gebouw,Website locatie,Wijknaam,CBS wijknummer,Buurtnaam,CBS buurtnummer,BAG referentienummer,Straatnaam,Huisnummer,Huisletter,Huisnummertoevoeging,Postcode,Plaats,Extra adresaanduiding,X,Y,Longitude,Latitude,Openingstijden 10-03-2021,Openingstijden 11-03-2021,Openingstijden 12-03-2021,Openingstijden 13-03-2021,Openingstijden 14-03-2021,Openingstijden 15-03-2021,Openingstijden 16-03-2021,Openingstijden 17-03-2021,Mindervaliden toegankelijk,Akoestiek,Auditieve hulpmiddelen,Visuele hulpmiddelen,Mindervalide toilet aanwezig,Kieskring ID,Hoofdstembureau,Tellocatie,Contactgegevens,Beschikbaarheid,Verkiezingen,ID,UUID
27063,Almere,GM0034,Stembureau,300.0,Stadhuis maandag 15 mrt,kantoorfunctie,,,,,,34200000035202,Stadhuisplein,1,,,1315HR,Almere,,143722.715265295,487105.004663816,5.221609974,52.37170648,,,,,,2021-03-15T07:30:00 tot 2021-03-15T21:00:00,,,Y,,,Blinden mal ,,5,Lelystad,,Team Verkiezingen 036-5458181,http://www.almere.nl/bestuur/verkiezingen,,NLODSGM0034stembureaus20210317008,7ff818951a3a47f78abf494880ba75af
27064,Almere,GM0034,Stembureau,435.0,Gymzaal Luitstraat dinsdag 16 mrt,sportfunctie,,,,,,34200000043164,Luitstraat,5,,,1312LG,Almere,,141456.255793041,487038.179912267,5.1883324,52.3710547,,,,,,,2021-03-16T07:30:00 tot 2021-03-15T21:00:00,,Y,,,,,5,Lelystad,,Team Verkiezingen 036-5458181,http://www.almere.nl/bestuur/verkiezingen,,NLODSGM0034stembureaus20210317008,c4484a20e76a4c6d960b49f9c078d41a
27065,Almere,GM0034,Stembureau,442.0,Sportzaal Basilicumweg dinsdag 16 mrt,sportfunctie,,,,,,34200000002228,Basilicumweg,200,,,1313EH,Almere,,142447.699798694,488159.719278916,5.2028485,52.3811581,,,,,,,2021-03-16T07:30:00 tot 2021-03-15T21:00:00,,Y,,,,,5,Lelystad,,Team Verkiezingen 036-5458181,http://www.almere.nl/bestuur/verkiezingen,,NLODSGM0034stembureaus20210317008,da19019755c4425c9024510dea8b6dc3
27066,Almere,GM0034,Stembureau,9.0,Buurtcentrum Amerika,sportfunctie,,,,,,34200000081638,Henry Stanleystraat,1,,,1363LB,Almere,,138448.98055184,485146.026155737,5.14426798,52.353966572,,,,,,,,2021-03-17T07:30:00 tot 2021-03-17T21:00:00,Y,,,,,5,Lelystad,,Team Verkiezingen 036-5458181,http://www.almere.nl/bestuur/verkiezingen,,NLODSGM0034stembureaus20210317008,201e8eaad214486894da17ac2622a621
27067,Almere,GM0034,Stembureau,1.0,Stadhuis,kantoorfunctie,,,,,,34200000035202,Stadhuisplein,1,,,1315HR,Almere,,143722.715265295,487105.004663816,5.221609974,52.37170648,,,,,,,,2021-03-17T07:30:00 tot 2021-03-17T21:00:00,Y,,,Blinden mal ,,5,Lelystad,,Team Verkiezingen 036-5458181,http://www.almere.nl/bestuur/verkiezingen,,NLODSGM0034stembureaus20210317008,0b40aa0838864b8c82f9c82bffa4eeaf
27068,Almere,GM0034,Stembureau,12.0,Buurtcentrum Meenten en Grienden,bijeenkomstfunctie,,,,,,34200000014126,Jaagmeent,189,,,1356AT,Almere,,144758.317769461,483212.996323528,5.236934987,52.336747055000004,,,,,,,,2021-03-17T07:30:00 tot 2021-03-17T21:00:00,Y,,,,,5,Lelystad,,Team Verkiezingen 036-5458181,http://www.almere.nl/bestuur/verkiezingen,,NLODSGM0034stembureaus20210317008,daa89fd50b054f3981b047cd4f91b6da
27069,Almere,GM0034,Stembureau,33.0,School De Pirouette,onderwijsfunctie,,,,,,34200000044724,Iepenstraat,1,,,1326DB,Almere,,145593.359850873,487375.821178715,5.249070656,52.374175657,,,,,,,,2021-03-17T07:30:00 tot 2021-03-17T21:00:00,Y,,,,,5,Lelystad,,Team Verkiezingen 036-5458181,http://www.almere.nl/bestuur/verkiezingen,,NLODSGM0034stembureaus20210317008,c413568d84b643e4ba82b3160d7b866f
27070,Almere,GM0034,Stembureau,34.0,Buurtcentrum De Wieken,bijeenkomstfunctie,,,,,,34200000031725,Wipmolenweg,54,,,1333GS,Almere,,147352.56854609,489944.26159302,5.27484565,52.39728687,,,,,,,,2021-03-17T07:30:00 tot 2021-03-17T21:00:00,Y,,,,,5,Lelystad,,Team Verkiezingen 036-5458181,http://www.almere.nl/bestuur/verkiezingen,,NLODSGM0034stembureaus20210317008,d6cabe0a530a47c289ffd80f34d32d96
27071,Almere,GM0034,Stembureau,38.0,Taalcentrum Almere locatie Kruidenwijk,bijeenkomstfunctie,,,,,,34200000027846,Sesamstraat,1,,,1313GS,Almere,,142108.14767651,488080.977333111,5.197864536,52.380442542,,,,,,,,2021-03-17T07:30:00 tot 2021-03-17T21:00:00,Y,,,,,5,Lelystad,,Team Verkiezingen 036-5458181,http://www.almere.nl/bestuur/verkiezingen,,NLODSGM0034stembureaus20210317008,96723c918f7e4f1cbe39d13afdacd55b
27072,Almere,GM0034,Stembureau,41.0,Buurtcentrum Parkwijk,bijeenkomstfunctie,,,,,,34200000059491,Haagbeukweg,42,,,1326CP,Almere,,145201.148733046,487482.281071717,5.243308067,52.375125616,,,,,,,,2021-03-17T07:30:00 tot 2021-03-17T21:00:00,Y,,,,,5,Lelystad,,Team Verkiezingen 036-5458181,http://www.almere.nl/bestuur/verkiezingen,,NLODSGM0034stembureaus20210317008,1e23268b7659464c9a78bb78d953e154
27073,Almere,GM0034,Stembureau,42.0,Dependance school De Buitenburcht,onderwijsfunctie,,,,,,34200000010250,Goudsbloemweg,6,,,1338RL,Almere,,147795.791656834,489296.227201913,5.281371522,52.391468645,,,,,,,,2021-03-17T07:30:00 tot 2021-03-17T21:00:00,Y,,,,,5,Lelystad,,Team Verkiezingen 036-5458181,http://www.almere.nl/bestuur/verkiezingen,,NLODSGM0034stembureaus20210317008,4731bbb06aa54631a15a5e6a824038a0
27074,Almere,GM0034,Stembureau,44.0,Buurtcentrum 't Kardoes,bijeenkomstfunctie,,,,,,34200000028638,J.G. Suurhoffstraat,45,,,1314NR,Almere,,143355.394583676,487867.477930588,5.216189897,52.378551567,,,,,,,,2021-03-17T07:30:00 tot 2021-03-17T21:00:00,Y,,,,,5,Lelystad,,Team Verkiezingen 036-5458181,http://www.almere.nl/bestuur/verkiezingen,,NLODSGM0034stembureaus20210317008,c490f16873d74438abec9bee2cd812d3
27075,Almere,GM0034,Stembureau,46.0,School De Lettertuin,onderwijsfunctie,,,,,,34200000042266,Zonnebloemweg,68,,,1338TV,Almere,,147721.153520347,488731.449453551,5.280287284,52.38639171,,,,,,,,2021-03-17T07:30:00 tot 2021-03-17T21:00:00,Y,,,,,5,Lelystad,,Team Verkiezingen 036-5458181,http://www.almere.nl/bestuur/verkiezingen,,NLODSGM0034stembureaus20210317008,cda4c2d39d2144dd88a8c5248caa8c97
27076,Almere,GM0034,Stembureau,49.0,Taalcentrum Almere locatie Bloemenbuurt,onderwijsfunctie,,,,,,34200000000339,Asterstraat,41,,,1338WS,Almere,,148036.923244299,488998.95347243,5.28492,52.3888,,,,,,,,2021-03-17T07:30:00 tot 2021-03-17T21:00:00,Y,,,,,5,Lelystad,,Team Verkiezingen 036-5458181,http://www.almere.nl/bestuur/verkiezingen,,NLODSGM0034stembureaus20210317008,5304a3e7007b4f31aec4a01abe00d3f4
27077,Almere,GM0034,Stembureau,54.0,Buurtlokaal De Dop,onderwijsfunctie,,,,,,34200000052435,Danslaan,66,,,1326PL,Almere,,146091.496454375,486346.268780864,5.256412885,52.364930804,,,,,,,,2021-03-17T07:30:00 tot 2021-03-17T21:00:00,Y,,,,,5,Lelystad,,Team Verkiezingen 036-5458181,http://www.almere.nl/bestuur/verkiezingen,,NLODSGM0034stembureaus20210317008,dcfcaee4fbac46d7b7c6867060062d68
27078,Almere,GM0034,Stembureau,57.0,School De Olijfboom/'t Zonnewiel,onderwijsfunctie,,,,,,34200000042424,Bongerdstraat,2,,,1326AB,Almere,,144834.384177869,487478.257190914,5.237922261,52.375082789,,,,,,,,2021-03-17T07:30:00 tot 2021-03-17T21:00:00,Y,,,,,5,Lelystad,,Team Verkiezingen 036-5458181,http://www.almere.nl/bestuur/verkiezingen,,NLODSGM0034stembureaus20210317008,ebdc4af4ea454b23bda42cbd9cdfe714
27079,Almere,GM0034,Stembureau,59.0,Buurtcentrum Het Forum,bijeenkomstfunctie,,,,,,34200000038654,Haasweg,11,,,1338AW,Almere,,147299.721873968,488964.808050989,5.274091647,52.388483282,,,,,,,,2021-03-17T07:30:00 tot 2021-03-17T21:00:00,Y,,,,,5,Lelystad,,Team Verkiezingen 036-5458181,http://www.almere.nl/bestuur/verkiezingen,,NLODSGM0034stembureaus20210317008,a16cddc392064153be038cd80b4e0a86
27080,Almere,GM0034,Stembureau,61.0,Filmwijkcentrum,bijeenkomstfunctie,,,,,,34200000066827,Walt Disneyplantsoen,76,,,1325SX,Almere,,145126.916520027,485750.604137801,5.242268782,52.359560756,,,,,,,,2021-03-17T07:30:00 tot 2021-03-17T21:00:00,Y,,,,,5,Lelystad,,Team Verkiezingen 036-5458181,http://www.almere.nl/bestuur/verkiezingen,,NLODSGM0034stembureaus20210317008,907c271d80c34b0cbb448b9ac6497169
27081,Almere,GM0034,Stembureau,64.0,Ontmoetingshuis De Kern,woonfunctie,,,,,,34200000038396,Koekoeklaan,2,,,1343AM,Almere,,149135.288310739,483675.412444261,5.301147173,52.340967127,,,,,,,,2021-03-17T07:30:00 tot 2021-03-17T21:00:00,Y,,,,,5,Lelystad,,Team Verkiezingen 036-5458181,http://www.almere.nl/bestuur/verkiezingen,,NLODSGM0034stembureaus20210317008,5d3d1710aee4441cab969a29b618572e
27082,Almere,GM0034,Stembureau,67.0,Taalcentrum Almere locatie Filmwijk,onderwijsfunctie,,,,,,34200000052580,Walt Disneyplantsoen,88,,,1325SX,Almere,,145237.783024412,485815.86301297,5.24389439,52.360149254,,,,,,,,2021-03-17T07:30:00 tot 2021-03-17T21:00:00,Y,,,,,5,Lelystad,,Team Verkiezingen 036-5458181,http://www.almere.nl/bestuur/verkiezingen,,NLODSGM0034stembureaus20210317008,db77b88e8e114727b1d34d90dd4bb5dd
27083,Almere,GM0034,Stembureau,68.0,De Buurtschuur,overige gebruiksfunctie,,,,,,34200000088667,Nobellaan,13,,,1341BJ,Almere,,148140.431973855,485669.972654112,5.28650835101934,52.3588819226109,,,,,,,,2021-03-17T07:30:00 tot 2021-03-17T21:00:00,Y,,,,,5,Lelystad,,Team Verkiezingen 036-5458181,http://www.almere.nl/bestuur/verkiezingen,,NLODSGM0034stembureaus20210317008,36082711546d4fa983d85a45b16bf580
27084,Almere,GM0034,Stembureau,73.0,School De Archipel 1,onderwijsfunctie,,,,,,34200000074818,Maldivenweg,45,,,1339PP,Almere,,149596.346390273,490070.282108229,5.307809983,52.398446126,,,,,,,,2021-03-17T07:30:00 tot 2021-03-17T21:00:00,Y,,,,,5,Lelystad,,Team Verkiezingen 036-5458181,http://www.almere.nl/bestuur/verkiezingen,,NLODSGM0034stembureaus20210317008,b72172114bb04485be1c507febdbc286
27085,Almere,GM0034,Stembureau,75.0,Buurtcentrum De Cobra,bijeenkomstfunctie,,,,,,34200000066198,Hildo Kropstraat,8,,,1328BC,Almere,,146205.550795951,487447.605244473,5.2580586,52.374830956,,,,,,,,2021-03-17T07:30:00 tot 2021-03-17T21:00:00,Y,,,,,5,Lelystad,,Team Verkiezingen 036-5458181,http://www.almere.nl/bestuur/verkiezingen,,NLODSGM0034stembureaus20210317008,491fb122fdf24f5485dbc3cb1e0e8105
27086,Almere,GM0034,Stembureau,77.0,School De Archipel 2,onderwijsfunctie,,,,,,34200000074818,Maldivenweg,45,,,1339PP,Almere,,149596.346390273,490070.282108229,5.307809983,52.398446126,,,,,,,,2021-03-17T07:30:00 tot 2021-03-17T21:00:00,Y,,,,,5,Lelystad,,Team Verkiezingen 036-5458181,http://www.almere.nl/bestuur/verkiezingen,,NLODSGM0034stembureaus20210317008,3b15e1f90217479a90b71814d56b35e8
27087,Almere,GM0034,Stembureau,78.0,Buurtontm. centrum het Boegbeeld,bijeenkomstfunctie,,,,,,34200000068430,Prozastraat,121,,,1321GZ,Almere,,140894.593197054,485590.010297465,5.1801459,52.3580251,,,,,,,,2021-03-17T07:30:00 tot 2021-03-17T21:00:00,Y,,,,,5,Lelystad,,Team Verkiezingen 036-5458181,http://www.almere.nl/bestuur/verkiezingen,,NLODSGM0034stembureaus20210317008,34f3ccdb8dda4b25ae4831fb85c6416f
27088,Almere,GM0034,Stembureau,80.0,School Het Avontuur,onderwijsfunctie,,,,,,34200000076157,Catootjepad,6,,,1336JG,Almere,,150484.561045159,490380.460040004,5.32085612,52.401241865,,,,,,,,2021-03-17T07:30:00 tot 2021-03-17T21:00:00,Y,,,,,5,Lelystad,,Team Verkiezingen 036-5458181,http://www.almere.nl/bestuur/verkiezingen,,NLODSGM0034stembureaus20210317008,89f7f307039f44cfbb1f111823c29647
27089,Almere,GM0034,Stembureau,81.0,Buurthuis De Cartoon,bijeenkomstfunctie,,,,,,34200000078827,Gerrit Th. Rotmanlaan,28,,,1336BA,Almere,,150058.412347775,490734.355294275,5.314589235,52.404418834,,,,,,,,2021-03-17T07:30:00 tot 2021-03-17T21:00:00,Y,,,,,5,Lelystad,,Team Verkiezingen 036-5458181,http://www.almere.nl/bestuur/verkiezingen,,NLODSGM0034stembureaus20210317008,0ffe025513ae427898b7b7723cd15e0f
27090,Almere,GM0034,Stembureau,85.0,Huis van de Waterwijk,onderwijsfunctie,,,,,,34200000027052,Slufterplantsoen,10,,,1316KX,Almere,,143997.652603429,489022.687430438,5.225584351,52.388947265,,,,,,,,2021-03-17T07:30:00 tot 2021-03-17T21:00:00,Y,,,,,5,Lelystad,,Team Verkiezingen 036-5458181,http://www.almere.nl/bestuur/verkiezingen,,NLODSGM0034stembureaus20210317008,57f2c42bc72c48b0898254f44bbf8d0f
27091,Almere,GM0034,Stembureau,86.0,Kerkcentrum Goede Rede,bijeenkomstfunctie,,,,,,34200000043149,Kerkgracht,60,,,1354AM,Almere,,143680.157777514,483124.128575912,5.221118922,52.335927218,,,,,,,,2021-03-17T07:30:00 tot 2021-03-17T21:00:00,Y,,,,,5,Lelystad,,Team Verkiezingen 036-5458181,http://www.almere.nl/bestuur/verkiezingen,,NLODSGM0034stembureaus20210317008,52fd1f3d97de4639814db7a6273a2a33
27092,Almere,GM0034,Stembureau,110.0,Buurtcentrum Amerika 2,sportfunctie,,,,,,34200000081638,Henry Stanleystraat,1,,,1363LB,Almere,,138448.98055184,485146.026155737,5.14426798,52.353966572,,,,,,,,2021-03-17T07:30:00 tot 2021-03-17T21:00:00,Y,,,,,5,Lelystad,,Team Verkiezingen 036-5458181,http://www.almere.nl/bestuur/verkiezingen,,NLODSGM0034stembureaus20210317008,44e0ab6fcc934373bb39ed0d656dd5ac
27093,Almere,GM0034,Stembureau,111.0,Buurtcentrum De Ruimte,"bijeenkomstfunctie, onderwijsfunctie",,,,,,34200000088936,Nimfenplein,1,,,1363SV,Almere,,139067.691268646,485554.942082911,5.15333,52.35766,,,,,,,,2021-03-17T07:30:00 tot 2021-03-17T21:00:00,Y,,,,,5,Lelystad,,Team Verkiezingen 036-5458181,http://www.almere.nl/bestuur/verkiezingen,,NLODSGM0034stembureaus20210317008,b63ac4d230e64450bdfdeccecbde7e6a
27094,Almere,GM0034,Stembureau,112.0,Gymzaal Vrijmark (t/o School de Loofhut),sportfunctie,,,,,,34200000030143,Vrijmark,111,,,1355GK,Almere,,143954.249630301,484040.175695815,5.225110363,52.344165848,,,,,,,,2021-03-17T07:30:00 tot 2021-03-17T21:00:00,Y,,,,,5,Lelystad,,Team Verkiezingen 036-5458181,http://www.almere.nl/bestuur/verkiezingen,,NLODSGM0034stembureaus20210317008,d10260e5857c4074b146860053948726
27095,Almere,GM0034,Stembureau,116.0,Portocabin bij Station Muziekwijk,overige gebruiksfunctie,,,,,,34200000085700,Strawinskypad,100,a,,1323PZ,Almere,,141533.731518042,486689.073310079,5.189484,52.367919,,,,,,,,2021-03-17T07:30:00 tot 2021-03-17T21:00:00,Y,,,,,5,Lelystad,,Team Verkiezingen 036-5458181,http://www.almere.nl/bestuur/verkiezingen,,NLODSGM0034stembureaus20210317008,a44923eeb4cf4e60a8c485d21be3b392
27096,Almere,GM0034,Stembureau,117.0,Portocabin bij Muzenpark,gezondheidszorgfunctie,,,,,,34200000041024,Wim Kanplein,1,,,1311LH,Almere,,140889.333363391,486965.364204838,5.180011,52.370386,,,,,,,,2021-03-17T07:30:00 tot 2021-03-17T21:00:00,Y,,,,,5,Lelystad,,Team Verkiezingen 036-5458181,http://www.almere.nl/bestuur/verkiezingen,,NLODSGM0034stembureaus20210317008,229332976d964d96bee5bc3406910016
27097,Almere,GM0034,Stembureau,118.0,Tent Bizonplantsoen,woonfunctie,,,,,,34200000040348,Bizonplantsoen,37,,,1338JE,Almere,,147107.393760771,488473.176123821,5.271278,52.384062,,,,,,,,2021-03-17T07:30:00 tot 2021-03-17T21:00:00,Y,,,,,5,Lelystad,,Team Verkiezingen 036-5458181,http://www.almere.nl/bestuur/verkiezingen,,NLODSGM0034stembureaus20210317008,ab20f076635d46f88438053ea49a19e6
27098,Almere,GM0034,Stembureau,119.0,MBO College Poort,onderwijsfunctie,,,,,,34200000093578,Winterspelenplein,25,,,1362LE,Almere,,139045.289503529,483883.122430461,5.1530804,52.3426338,,,,,,,,2021-03-17T07:30:00 tot 2021-03-17T21:00:00,Y,,,,,5,Lelystad,,Team Verkiezingen 036-5458181,http://www.almere.nl/bestuur/verkiezingen,,NLODSGM0034stembureaus20210317008,73c9f13871a44e5483eb61408d988c56
27099,Almere,GM0034,Stembureau,120.0,Clubhuis Handbalclub Najaden,sportfunctie,,,,,,34200000070385,Meerveldstraat,54,,,1359HZ,Almere,,142287.846665994,483891.4979771,5.200662,52.3427936,,,,,,,,2021-03-17T07:30:00 tot 2021-03-17T21:00:00,Y,,,,,5,Lelystad,,Team Verkiezingen 036-5458181,http://www.almere.nl/bestuur/verkiezingen,,NLODSGM0034stembureaus20210317008,f1426f5834864d60876843350be53e9d
27100,Almere,GM0034,Stembureau,121.0,Buitencentrum Almeerderhout,"bijeenkomstfunctie, kantoorfunctie, winkelfunctie",,,,,,34200000089122,Kemphaanlaan,4,,,1358AG,Almere,,147103.049298115,483446.339322999,5.2713321,52.3388829,,,,,,,,2021-03-17T07:30:00 tot 2021-03-17T21:00:00,Y,,,,,5,Lelystad,,Team Verkiezingen 036-5458181,http://www.almere.nl/bestuur/verkiezingen,,NLODSGM0034stembureaus20210317008,012df99d4ddb49199816d701ec7dfd90
27101,Almere,GM0034,Stembureau,122.0,Drive-Through Veluwsekant,kantoorfunctie,,,,,,34200000072948,De Strubbenweg,7,,,1327GA,Almere,,146281.138543271,485540.728670197,5.259218,52.357694,,,,,,,,2021-03-17T07:30:00 tot 2021-03-17T21:00:00,Y,,,,,5,Lelystad,,Team Verkiezingen 036-5458181,http://www.almere.nl/bestuur/verkiezingen,,NLODSGM0034stembureaus20210317008,eb60dd52609f49f8a411889de3ff27df
27102,Almere,GM0034,Stembureau,123.0,Drive-Through Doemere,overige gebruiksfunctie,,,,,,34200000041186,Los Angelesstraat,1,,,1334LA,Almere,,147191.671276406,489414.57003902,5.272494,52.392524,,,,,,,,2021-03-17T07:30:00 tot 2021-03-17T21:00:00,Y,,,,,5,Lelystad,,Team Verkiezingen 036-5458181,http://www.almere.nl/bestuur/verkiezingen,,NLODSGM0034stembureaus20210317008,1d2963e9a1114783bacb98636dfab369
27103,Almere,GM0034,Stembureau,124.0,Gymzaal Buitenhof,sportfunctie,,,,,,34200000005963,Buitenhof,95,,,1354GR,Almere,,143370.213078169,483602.604590182,5.2165549,52.3402211,,,,,,,,2021-03-17T07:30:00 tot 2021-03-17T21:00:00,Y,,,,,5,Lelystad,,Team Verkiezingen 036-5458181,http://www.almere.nl/bestuur/verkiezingen,,NLODSGM0034stembureaus20210317008,da50c2e8399b45e2b74badb96c4da001
27104,Almere,GM0034,Stembureau,125.0,Gymzaal Jaagmeent,sportfunctie,,,,,,34200000014127,Jaagmeent,190,,,1356AT,Almere,,144819.565364016,483131.184543657,5.2378361,52.3360129,,,,,,,,2021-03-17T07:30:00 tot 2021-03-17T21:00:00,Y,,,,,5,Lelystad,,Team Verkiezingen 036-5458181,http://www.almere.nl/bestuur/verkiezingen,,NLODSGM0034stembureaus20210317008,d384e8fe0e6f41e88402119cf67bb05e
27105,Almere,GM0034,Stembureau,126.0,Gymzaal Meerveldplein,sportfunctie,,,,,,34200000090672,Meerveldplein,4,,,1359HM,Almere,,142394.129117278,483787.705115115,5.2022255,52.3418632,,,,,,,,2021-03-17T07:30:00 tot 2021-03-17T21:00:00,Y,,,,,5,Lelystad,,Team Verkiezingen 036-5458181,http://www.almere.nl/bestuur/verkiezingen,,NLODSGM0034stembureaus20210317008,eb27e3e7e0ca4737ba47a5f284e92aa5
27106,Almere,GM0034,Stembureau,127.0,Gymzaal Bosgouw,sportfunctie,,,,,,34200000003999,Bosgouw,237,,,1352GW,Almere,,143069.429542689,484141.296966644,5.2121223,52.3450562,,,,,,,,2021-03-17T07:30:00 tot 2021-03-17T21:00:00,Y,,,,,5,Lelystad,,Team Verkiezingen 036-5458181,http://www.almere.nl/bestuur/verkiezingen,,NLODSGM0034stembureaus20210317008,f27252ef7ad04af788d1c85359ab92ea
27107,Almere,GM0034,Stembureau,128.0,Gymzaal Amsterdamweg,"onderwijsfunctie, sportfunctie",,,,,,34200000034335,Amsterdamweg,11,,,1324RL,Almere,,142904.699307836,486695.416937387,5.2096131,52.3680079,,,,,,,,2021-03-17T07:30:00 tot 2021-03-17T21:00:00,Y,,,,,5,Lelystad,,Team Verkiezingen 036-5458181,http://www.almere.nl/bestuur/verkiezingen,,NLODSGM0034stembureaus20210317008,34fdad7c4ff94f27b7db66b885025f5d
27108,Almere,GM0034,Stembureau,129.0,Gymzaal Pijnackerpad,sportfunctie,,,,,,34200000023270,Pijnackerpad,1,,,1324VA,Almere,,142391.470176611,485856.615211808,5.202109,52.3604576,,,,,,,,2021-03-17T07:30:00 tot 2021-03-17T21:00:00,Y,,,,,5,Lelystad,,Team Verkiezingen 036-5458181,http://www.almere.nl/bestuur/verkiezingen,,NLODSGM0034stembureaus20210317008,92c4b502dc7f4dd5ab07ee10459fb9f7
27109,Almere,GM0034,Stembureau,130.0,Gymzaal Leeuwardenplein,sportfunctie,,,,,,34200000016879,Leeuwardenplein,36,,,1324BH,Almere,,142961.404697401,487153.134865434,5.2104293,52.3721229,,,,,,,,2021-03-17T07:30:00 tot 2021-03-17T21:00:00,Y,,,,,5,Lelystad,,Team Verkiezingen 036-5458181,http://www.almere.nl/bestuur/verkiezingen,,NLODSGM0034stembureaus20210317008,7f4d59c591024f59baa51f3172422375
27110,Almere,GM0034,Stembureau,131.0,Gymzaal Lingestraat,sportfunctie,,,,,,34200000017582,Lingestraat,38,,,1316CS,Almere,,143716.554876471,488339.198498009,5.2214781,52.3827987,,,,,,,,2021-03-17T07:30:00 tot 2021-03-17T21:00:00,Y,,,,,5,Lelystad,,Team Verkiezingen 036-5458181,http://www.almere.nl/bestuur/verkiezingen,,NLODSGM0034stembureaus20210317008,242e48d17538461590c2859095392e1f
27111,Almere,GM0034,Stembureau,132.0,Gymzaal Harderwijkoever,sportfunctie,,,,,,34200000011603,Harderwijkoever,1,,,1324HA,Almere,,142895.696292313,485973.083535597,5.2095069,52.3615157,,,,,,,,2021-03-17T07:30:00 tot 2021-03-17T21:00:00,Y,,,,,5,Lelystad,,Team Verkiezingen 036-5458181,http://www.almere.nl/bestuur/verkiezingen,,NLODSGM0034stembureaus20210317008,318c196f21984af7aa67cf5b6687a735
27112,Almere,GM0034,Stembureau,133.0,Gymzaal Regenboogweg,sportfunctie,,,,,,34200000049726,Regenboogweg,49,,,1339ET,Almere,,148634.542511836,489640.49363354,5.2936866,52.3945731,,,,,,,,2021-03-17T07:30:00 tot 2021-03-17T21:00:00,Y,,,,,5,Lelystad,,Team Verkiezingen 036-5458181,http://www.almere.nl/bestuur/verkiezingen,,NLODSGM0034stembureaus20210317008,3360572af1924f538a96d2f56c243bc8
27113,Almere,GM0034,Stembureau,134.0,Gymzaal Ravelplantsoen,sportfunctie,,,,,,34200000023936,Ravelplantsoen,7,,,1323ET,Almere,,141897.098382906,486338.778661282,5.1948328,52.3647795,,,,,,,,2021-03-17T07:30:00 tot 2021-03-17T21:00:00,Y,,,,,5,Lelystad,,Team Verkiezingen 036-5458181,http://www.almere.nl/bestuur/verkiezingen,,NLODSGM0034stembureaus20210317008,eab73cbdfb894615884eab409f09d270
27114,Almere,GM0034,Stembureau,135.0,Gymzaal Luitstraat,sportfunctie,,,,,,34200000043164,Luitstraat,5,,,1312LG,Almere,,141456.255793041,487038.179912267,5.1883324,52.3710547,,,,,,,,2021-03-17T07:30:00 tot 2021-03-17T21:00:00,Y,,,,,5,Lelystad,,Team Verkiezingen 036-5458181,http://www.almere.nl/bestuur/verkiezingen,,NLODSGM0034stembureaus20210317008,d8fabb0b36ad4d88b8ae93e1352654e7
27115,Almere,GM0034,Stembureau,136.0,Gymzaal Aprilstraat,onderwijsfunctie,,,,,,34200000058066,Aprilstraat,109,,,1335BL,Almere,,148124.692340495,490753.377110657,5.2861734,52.404569,,,,,,,,2021-03-17T07:30:00 tot 2021-03-17T21:00:00,Y,,,,,5,Lelystad,,Team Verkiezingen 036-5458181,http://www.almere.nl/bestuur/verkiezingen,,NLODSGM0034stembureaus20210317008,a1c6c8db03714f8e97497bf4a6008194
27116,Almere,GM0034,Stembureau,137.0,Gymzaal Cranberrylaan,sportfunctie,,,,,,34200000059389,Cranberrylaan,32,,,1326JR,Almere,,146008.434917533,486776.969753687,5.2551819,52.3688004,,,,,,,,2021-03-17T07:30:00 tot 2021-03-17T21:00:00,Y,,,,,5,Lelystad,,Team Verkiezingen 036-5458181,http://www.almere.nl/bestuur/verkiezingen,,NLODSGM0034stembureaus20210317008,9f1dec93a460427eb26819911aff022d
27117,Almere,GM0034,Stembureau,138.0,Gymzaal Johan Jongkindstraat,sportfunctie,,,,,,34200000062881,Johan Jongkindstraat,28,,,1318LW,Almere,,145796.576462908,487870.050364546,5.2520413,52.378621,,,,,,,,2021-03-17T07:30:00 tot 2021-03-17T21:00:00,Y,,,,,5,Lelystad,,Team Verkiezingen 036-5458181,http://www.almere.nl/bestuur/verkiezingen,,NLODSGM0034stembureaus20210317008,55bb493c165b4eea96bc6d4e988bcb99
27118,Almere,GM0034,Stembureau,139.0,Gymzaal Willem de Vlaminghstraat,sportfunctie,,,,,,34200000063291,Willem de Vlaminghstraat,33,,,1335PP,Almere,,148724.770453125,490892.694934786,5.2949888,52.4058283,,,,,,,,2021-03-17T07:30:00 tot 2021-03-17T21:00:00,Y,,,,,5,Lelystad,,Team Verkiezingen 036-5458181,http://www.almere.nl/bestuur/verkiezingen,,NLODSGM0034stembureaus20210317008,5ce782792bfa45ec90fe18d9466b0cb2
27119,Almere,GM0034,Stembureau,140.0,Sportzaal Kraaiennest 1,sportfunctie,,,,,,34200000074823,Kraaiennest,8,,,1319DA,Almere,,140758.586598509,489141.416804159,5.177999,52.3899399,,,,,,,,2021-03-17T07:30:00 tot 2021-03-17T21:00:00,Y,,,,,5,Lelystad,,Team Verkiezingen 036-5458181,http://www.almere.nl/bestuur/verkiezingen,,NLODSGM0034stembureaus20210317008,3dce446894b34d018e582aa0f1332287
27120,Almere,GM0034,Stembureau,141.0,Sportzaal Kraaiennest 2,sportfunctie,,,,,,34200000074823,Kraaiennest,8,,,1319DA,Almere,,140758.586598509,489141.416804159,5.177999,52.3899399,,,,,,,,2021-03-17T07:30:00 tot 2021-03-17T21:00:00,Y,,,,,5,Lelystad,,Team Verkiezingen 036-5458181,http://www.almere.nl/bestuur/verkiezingen,,NLODSGM0034stembureaus20210317008,e88a44cc12b04a059ab1d3794c49bac3
27121,Almere,GM0034,Stembureau,142.0,Sportzaal Basilicumweg 1,sportfunctie,,,,,,34200000002228,Basilicumweg,200,,,1313EH,Almere,,142447.699798694,488159.719278916,5.2028485,52.3811581,,,,,,,,2021-03-17T07:30:00 tot 2021-03-17T21:00:00,Y,,,,,5,Lelystad,,Team Verkiezingen 036-5458181,http://www.almere.nl/bestuur/verkiezingen,,NLODSGM0034stembureaus20210317008,2c11c0d5c3e444289970d2229e8e234c
27122,Almere,GM0034,Stembureau,143.0,Sportzaal Basilicumweg 2,sportfunctie,,,,,,34200000002228,Basilicumweg,200,,,1313EH,Almere,,142447.699798694,488159.719278916,5.2028485,52.3811581,,,,,,,,2021-03-17T07:30:00 tot 2021-03-17T21:00:00,Y,,,,,5,Lelystad,,Team Verkiezingen 036-5458181,http://www.almere.nl/bestuur/verkiezingen,,NLODSGM0034stembureaus20210317008,dc51231c832c40d8b6e4bb5348337111
27123,Almere,GM0034,Stembureau,144.0,Sportzaal Binnenkruierstraat 1,sportfunctie,,,,,,34200000002865,Binnenkruierstraat,1,,,1333EC,Almere,,147271.551060129,489992.702611072,5.2736542,52.3977211,,,,,,,,2021-03-17T07:30:00 tot 2021-03-17T21:00:00,Y,,,,,5,Lelystad,,Team Verkiezingen 036-5458181,http://www.almere.nl/bestuur/verkiezingen,,NLODSGM0034stembureaus20210317008,e9f8a5252644438ea48c45560d0c6586
27124,Almere,GM0034,Stembureau,145.0,Sportzaal Binnenkruierstraat 2,sportfunctie,,,,,,34200000002865,Binnenkruierstraat,1,,,1333EC,Almere,,147271.551060129,489992.702611072,5.2736542,52.3977211,,,,,,,,2021-03-17T07:30:00 tot 2021-03-17T21:00:00,Y,,,,,5,Lelystad,,Team Verkiezingen 036-5458181,http://www.almere.nl/bestuur/verkiezingen,,NLODSGM0034stembureaus20210317008,76904c7c8ca34b0aad3aa3d3eb9bcb58
27125,Almere,GM0034,Stembureau,146.0,Sportzaal Prozastraat 1,sportfunctie,,,,,,34200000068431,Prozastraat,123,,,1321GZ,Almere,,141051.572390486,485615.122144198,5.1824492,52.3582548,,,,,,,,2021-03-17T07:30:00 tot 2021-03-17T21:00:00,Y,,,,,5,Lelystad,,Team Verkiezingen 036-5458181,http://www.almere.nl/bestuur/verkiezingen,,NLODSGM0034stembureaus20210317008,cf1b982dd5924c4db4b1d3141329af8c
27126,Almere,GM0034,Stembureau,147.0,Sportzaal Prozastraat 2,sportfunctie,,,,,,34200000068431,Prozastraat,123,,,1321GZ,Almere,,141051.572390486,485615.122144198,5.1824492,52.3582548,,,,,,,,2021-03-17T07:30:00 tot 2021-03-17T21:00:00,Y,,,,,5,Lelystad,,Team Verkiezingen 036-5458181,http://www.almere.nl/bestuur/verkiezingen,,NLODSGM0034stembureaus20210317008,d3b4adaf483142acb2c7af76dcb4a753
27127,Almere,GM0034,Stembureau,150.0,Sportzaal Nederlandstraat 1,sportfunctie,,,,,,34200000084204,Nederlandstraat,84,,,1363DB,Almere,,138677.85536224,484372.308628924,5.1476649,52.3470196,,,,,,,,2021-03-17T07:30:00 tot 2021-03-17T21:00:00,Y,,,,,5,Lelystad,,Team Verkiezingen 036-5458181,http://www.almere.nl/bestuur/verkiezingen,,NLODSGM0034stembureaus20210317008,3af582c6910445c59f99d67e5915f4d4
27128,Almere,GM0034,Stembureau,151.0,Sportzaal Nederlandstraat 2,sportfunctie,,,,,,34200000084204,Nederlandstraat,84,,,1363DB,Almere,,138677.85536224,484372.308628924,5.1476649,52.3470196,,,,,,,,2021-03-17T07:30:00 tot 2021-03-17T21:00:00,Y,,,,,5,Lelystad,,Team Verkiezingen 036-5458181,http://www.almere.nl/bestuur/verkiezingen,,NLODSGM0034stembureaus20210317008,5684886f1c8d47f88a9dc35ac05bf377
27129,Almere,GM0034,Stembureau,152.0,Kantine Buitenboys 1,bijeenkomstfunctie,,,,,,34200000059399,Daniël Stalpaertstraat,1,,,1333NA,Almere,,146287.949579895,489250.663424526,5.2592219,52.3910373,,,,,,,,2021-03-17T07:30:00 tot 2021-03-17T21:00:00,N,,,,,5,Lelystad,,Team Verkiezingen 036-5458181,http://www.almere.nl/bestuur/verkiezingen,,NLODSGM0034stembureaus20210317008,ee89bc8a45494fb89f1bbb7eab2a0409
27130,Almere,GM0034,Stembureau,153.0,Kantine Buitenboys 2,bijeenkomstfunctie,,,,,,34200000059399,Daniël Stalpaertstraat,1,,,1333NA,Almere,,146287.949579895,489250.663424526,5.2592219,52.3910373,,,,,,,,2021-03-17T07:30:00 tot 2021-03-17T21:00:00,N,,,,,5,Lelystad,,Team Verkiezingen 036-5458181,http://www.almere.nl/bestuur/verkiezingen,,NLODSGM0034stembureaus20210317008,f125adbd30f34df5ac0951c09dfa1e3e
27131,Almere,GM0034,Stembureau,154.0,Gebiedskantoor Stad,"bijeenkomstfunctie, onderwijsfunctie",,,,,,34200000060209,Hollywoodlaan,109,B,,1325KA,Almere,,144493.446546122,487081.521479645,5.232928,52.3715107,,,,,,,,2021-03-17T07:30:00 tot 2021-03-17T21:00:00,Y,,,,,5,Lelystad,,Team Verkiezingen 036-5458181,http://www.almere.nl/bestuur/verkiezingen,,NLODSGM0034stembureaus20210317008,ac3b41fd6d8d4b368a69ddfb11d09dd3
27132,Almere,GM0034,Stembureau,155.0,Sportzaal Slagbaai,sportfunctie,,,,,,34200000026675,Slagbaai,14,,,1317AC,Almere,,144422.43392723,488796.995329942,5.2318313,52.3869272,,,,,,,,2021-03-17T07:30:00 tot 2021-03-17T21:00:00,Y,,,,,5,Lelystad,,Team Verkiezingen 036-5458181,http://www.almere.nl/bestuur/verkiezingen,,NLODSGM0034stembureaus20210317008,043d48771e8944e084523877e65abbe2
27133,Almere,GM0034,Stembureau,156.0,Gymzaal Makassarweg,overige gebruiksfunctie,,,,,,34200000075593,Makassarweg,60,,,1335HZ,Almere,,148534.1813961,490163.015737469,5.2922021,52.3992681,,,,,,,,2021-03-17T07:30:00 tot 2021-03-17T21:00:00,Y,,,,,5,Lelystad,,Team Verkiezingen 036-5458181,http://www.almere.nl/bestuur/verkiezingen,,NLODSGM0034stembureaus20210317008,fdf237bf844647b5aaef880e0681b440
27134,Almere,GM0034,Stembureau,157.0,Gymzaal C. van Eesterenplein,woonfunctie,,,,,,34200000085318,C. van Eesterenplein,255,,,1333HH,Almere,,146153.164245804,489834.468809281,5.2572265,52.3962821,,,,,,,,2021-03-17T07:30:00 tot 2021-03-17T21:00:00,Y,,,,,5,Lelystad,,Team Verkiezingen 036-5458181,http://www.almere.nl/bestuur/verkiezingen,,NLODSGM0034stembureaus20210317008,ac14b61cc64d4753870eefeb2affdb1f
27135,Almere,GM0034,Stembureau,158.0,Gymzaal Kornetstraat,"onderwijsfunctie, sportfunctie",,,,,,34200000037583,Kornetstraat,19,,,1312XE,Almere,,140782.635535038,487396.223088043,5.1784261,52.3742556,,,,,,,,2021-03-17T07:30:00 tot 2021-03-17T21:00:00,Y,,,,,5,Lelystad,,Team Verkiezingen 036-5458181,http://www.almere.nl/bestuur/verkiezingen,,NLODSGM0034stembureaus20210317008,e506ec4e29904fb9a41d1d5d9f56ab5f
27136,Almere,GM0034,Stembureau,159.0,Buurtcentrum De Bazuin,bijeenkomstfunctie,,,,,,34200000036161,Luitstraat,1,,,1312LG,Almere,,141484.649706,487026.352493954,5.1887498,52.3709491,,,,,,,,2021-03-17T07:30:00 tot 2021-03-17T21:00:00,Y,,,,,5,Lelystad,,Team Verkiezingen 036-5458181,http://www.almere.nl/bestuur/verkiezingen,,NLODSGM0034stembureaus20210317008,64e4562313db4b6d9e5affc671b46a32
27137,Almere,GM0034,Stembureau,163.0,EveNaarHuis,bijeenkomstfunctie,,,,,,34200000087290,Sumatraweg,352,,,1335JM,Almere,,148952.664657108,490456.18231195,5.2983456,52.4019077,,,,,,,,2021-03-17T07:30:00 tot 2021-03-17T21:00:00,Y,,,,,5,Lelystad,,Team Verkiezingen 036-5458181,http://www.almere.nl/bestuur/verkiezingen,,NLODSGM0034stembureaus20210317008,fc1a2f527ba541cabcb3d7ab19095c63
27138,Almere,GM0034,Stembureau,164.0,Levend Waterkerk 1,bijeenkomstfunctie,,,,,,34200000047905,Parkwijklaan,44,,,1326AS,Almere,,145228.651973401,487425.535181948,5.2437136,52.3746161,,,,,,,,2021-03-17T07:30:00 tot 2021-03-17T21:00:00,Y,,,,,5,Lelystad,,Team Verkiezingen 036-5458181,http://www.almere.nl/bestuur/verkiezingen,,NLODSGM0034stembureaus20210317008,35f12ec166114d3a9ffc255c4aa3c577
27139,Almere,GM0034,Stembureau,165.0,Levend Waterkerk 2,bijeenkomstfunctie,,,,,,34200000047905,Parkwijklaan,44,,,1326AS,Almere,,145228.651973401,487425.535181948,5.2437136,52.3746161,,,,,,,,2021-03-17T07:30:00 tot 2021-03-17T21:00:00,Y,,,,,5,Lelystad,,Team Verkiezingen 036-5458181,http://www.almere.nl/bestuur/verkiezingen,,NLODSGM0034stembureaus20210317008,b66827fd88d84f92961b6e09ba8eeaa2
27140,Almere,GM0034,Stembureau,166.0,Drive-Through De Steiger,industriefunctie,,,,,,34200000028522,De Steiger,221,,,1351AX,Almere,,143712.51485632,484349.698378997,5.2215526,52.3469428,,,,,,,,2021-03-17T07:30:00 tot 2021-03-17T21:00:00,Y,,,,,5,Lelystad,,Team Verkiezingen 036-5458181,http://www.almere.nl/bestuur/verkiezingen,,NLODSGM0034stembureaus20210317008,a238cf76d9c941f797e595bb2ca6ca1b
27141,Almere,GM0034,Stembureau,167.0,De Bierfabriek,logiesfunctie,,,,,,34200000072937,Koetsierbaan,2,,,1315SE,Almere,,143450.765842998,486654.009911496,5.2176322,52.3676475,,,,,,,,2021-03-17T07:30:00 tot 2021-03-17T21:00:00,Y,,,,,5,Lelystad,,Team Verkiezingen 036-5458181,http://www.almere.nl/bestuur/verkiezingen,,NLODSGM0034stembureaus20210317008,b46ea7f4da99487bb244d5bea8e94b63
27142,Almere,GM0034,Stembureau,168.0,Portocabin Cézannestraat/ hoek Renoirstraat,woonfunctie,,,,,,34200000072184,Cézannestraat,101,,,1328PC,Almere,,146404.081909507,486860.782450939,5.260989,52.36956,,,,,,,,2021-03-17T07:30:00 tot 2021-03-17T21:00:00,Y,,,,,5,Lelystad,,Team Verkiezingen 036-5458181,http://www.almere.nl/bestuur/verkiezingen,,NLODSGM0034stembureaus20210317008,d832f6634e344a078ab9f3e10b13c60b
27143,Almere,GM0034,Stembureau,169.0,Blaashal Almere Poort,sportfunctie,,,,,,34200000098385,Jasper Warnerstraat,1001,,,1362LD,Almere,,139287.44778353,483590.988244353,5.1566475,52.3400152,,,,,,,,2021-03-17T07:30:00 tot 2021-03-17T21:00:00,Y,,,,,5,Lelystad,,Team Verkiezingen 036-5458181,http://www.almere.nl/bestuur/verkiezingen,,NLODSGM0034stembureaus20210317008,8d2f41fe662c4fe698a62475253e49d9
27144,Almere,GM0034,Stembureau,268.0,De Buurtschuur Nobelhorst  maandag 15 mrt,overige gebruiksfunctie,,,,,,34200000088667,Nobellaan,13,,,1341BJ,Almere,,148140.431973855,485669.972654112,5.28650835101934,52.3588819226109,,,,,,2021-03-15T07:30:00 tot 2021-03-15T21:00:00,,,Y,,,,,5,Lelystad,,Team Verkiezingen 036-5458181,http://www.almere.nl/bestuur/verkiezingen,,NLODSGM0034stembureaus20210317008,b03798146d4f4493a2ae0b1f18c3ceed
27145,Almere,GM0034,Stembureau,281.0,Buurtcentrum De Cartoon maandag 15 mrt,bijeenkomstfunctie,,,,,,34200000078827,Gerrit Th. Rotmanlaan,28,,,1336BA,Almere,,150058.412347775,490734.355294275,5.314589235,52.404418834,,,,,,2021-03-15T07:30:00 tot 2021-03-15T21:00:00,,,Y,,,,,5,Lelystad,,Team Verkiezingen 036-5458181,http://www.almere.nl/bestuur/verkiezingen,,NLODSGM0034stembureaus20210317008,86405e613d4b41a08e60e205f5cc3f6e
27146,Almere,GM0034,Stembureau,286.0,Kerkcentrum Goede Rede maandag 15 mrt,bijeenkomstfunctie,,,,,,34200000043149,Kerkgracht,60,,,1354AM,Almere,,143680.157777514,483124.128575912,5.221118922,52.335927218,,,,,,2021-03-15T07:30:00 tot 2021-03-15T21:00:00,,,Y,,,,,5,Lelystad,,Team Verkiezingen 036-5458181,http://www.almere.nl/bestuur/verkiezingen,,NLODSGM0034stembureaus20210317008,40a9e07a91ac459c82e8f31297f6a8c1
27147,Almere,GM0034,Stembureau,323.0,Drive-Through Doemere maandag 15 mrt,overige gebruiksfunctie,,,,,,34200000041186,Los Angelesstraat,1,,,1334LA,Almere,,147191.671276406,489414.57003902,5.272494,52.392524,,,,,,2021-03-15T07:30:00 tot 2021-03-15T21:00:00,,,Y,,,,,5,Lelystad,,Team Verkiezingen 036-5458181,http://www.almere.nl/bestuur/verkiezingen,,NLODSGM0034stembureaus20210317008,ba464301e98d43bfb12d1914a8550f4a
27148,Almere,GM0034,Stembureau,329.0,Gymzaal Pijnackerpad maandag 15 mrt,sportfunctie,,,,,,34200000023270,Pijnackerpad,1,,,1324VA,Almere,,142391.470176611,485856.615211808,5.202109,52.3604576,,,,,,2021-03-15T07:30:00 tot 2021-03-15T21:00:00,,,Y,,,,,5,Lelystad,,Team Verkiezingen 036-5458181,http://www.almere.nl/bestuur/verkiezingen,,NLODSGM0034stembureaus20210317008,b092c5f5bf9c4e81b6cad5bca291a550
27149,Almere,GM0034,Stembureau,335.0,Gymzaal Luitstraat maandag 15 mrt,sportfunctie,,,,,,34200000043164,Luitstraat,5,,,1312LG,Almere,,141456.255793041,487038.179912267,5.1883324,52.3710547,,,,,,2021-03-15T07:30:00 tot 2021-03-15T21:00:00,,,Y,,,,,5,Lelystad,,Team Verkiezingen 036-5458181,http://www.almere.nl/bestuur/verkiezingen,,NLODSGM0034stembureaus20210317008,515c0886fa8a44c8b9c117ff6ff63420
27150,Almere,GM0034,Stembureau,337.0,Gymzaal Cranberrylaan maandag 15 mrt,sportfunctie,,,,,,34200000059389,Cranberrylaan,32,,,1326JR,Almere,,146008.434917533,486776.969753687,5.2551819,52.3688004,,,,,,2021-03-15T07:30:00 tot 2021-03-15T21:00:00,,,Y,,,,,5,Lelystad,,Team Verkiezingen 036-5458181,http://www.almere.nl/bestuur/verkiezingen,,NLODSGM0034stembureaus20210317008,0564993ba93c41f6887e175bdc01bc38
27151,Almere,GM0034,Stembureau,342.0,Sportzaal Basilicumweg maandag 15 mrt,sportfunctie,,,,,,34200000002228,Basilicumweg,200,,,1313EH,Almere,,142447.699798694,488159.719278916,5.2028485,52.3811581,,,,,,2021-03-15T07:30:00 tot 2021-03-15T21:00:00,,,Y,,,,,5,Lelystad,,Team Verkiezingen 036-5458181,http://www.almere.nl/bestuur/verkiezingen,,NLODSGM0034stembureaus20210317008,769adb08fb134d32bd31db1d54023ffc
27152,Almere,GM0034,Stembureau,369.0,Blaashal Almere Poort maandag 15 maart,sportfunctie,,,,,,34200000098385,Jasper Warnerstraat,1001,,,1362LD,Almere,,139287.44778353,483590.988244353,5.1566475,52.3400152,,,,,,2021-03-15T07:30:00 tot 2021-03-15T21:00:00,,,Y,,,,,5,Lelystad,,Team Verkiezingen 036-5458181,http://www.almere.nl/bestuur/verkiezingen,,NLODSGM0034stembureaus20210317008,b733a6cd323c439aa110057902f03990
27153,Almere,GM0034,Stembureau,381.0,Buurtcentrum De Cartoon dinsdag 16 mrt,bijeenkomstfunctie,,,,,,34200000078827,Gerrit Th. Rotmanlaan,28,,,1336BA,Almere,,150058.412347775,490734.355294275,5.314589235,52.404418834,,,,,,,2021-03-16T07:30:00 tot 2021-03-15T21:00:00,,Y,,,,,5,Lelystad,,Team Verkiezingen 036-5458181,http://www.almere.nl/bestuur/verkiezingen,,NLODSGM0034stembureaus20210317008,c7fa99f01def43bb9a60649f804307e3
27154,Almere,GM0034,Stembureau,386.0,Kerkcentrum Goede Rede dinsdag 16 mrt,bijeenkomstfunctie,,,,,,34200000043149,Kerkgracht,60,,,1354AM,Almere,,143680.157777514,483124.128575912,5.221118922,52.335927218,,,,,,,2021-03-16T07:30:00 tot 2021-03-15T21:00:00,,Y,,,,,5,Lelystad,,Team Verkiezingen 036-5458181,http://www.almere.nl/bestuur/verkiezingen,,NLODSGM0034stembureaus20210317008,9cd75df107d042d39b488f2a71b873f2
27155,Almere,GM0034,Stembureau,423.0,Drive-Through Doemere dinsdag 16 mrt,overige gebruiksfunctie,,,,,,34200000041186,Los Angelesstraat,1,,,1334LA,Almere,,147191.671276406,489414.57003902,5.272494,52.392524,,,,,,,2021-03-16T07:30:00 tot 2021-03-15T21:00:00,,Y,,,,,5,Lelystad,,Team Verkiezingen 036-5458181,http://www.almere.nl/bestuur/verkiezingen,,NLODSGM0034stembureaus20210317008,813b99ffef504cf5a43d2770bd789760
27156,Almere,GM0034,Stembureau,429.0,Gymzaal Pijnackerpad dinsdag 16 mrt,sportfunctie,,,,,,34200000023270,Pijnackerpad,1,,,1324VA,Almere,,142391.470176611,485856.615211808,5.202109,52.3604576,,,,,,,2021-03-16T07:30:00 tot 2021-03-15T21:00:00,,Y,,,,,5,Lelystad,,Team Verkiezingen 036-5458181,http://www.almere.nl/bestuur/verkiezingen,,NLODSGM0034stembureaus20210317008,8df1962f58fb4c44841256b40ed9c40b
27157,Almere,GM0034,Stembureau,400.0,Stadhuis dinsdag 16 mrt,kantoorfunctie,,,,,,34200000035202,Stadhuisplein,1,,,1315HR,Almere,,143722.715265295,487105.004663816,5.221609974,52.37170648,,,,,,,2021-03-16T07:30:00 tot 2021-03-15T21:00:00,,Y,,,Blinden mal ,,5,Lelystad,,Team Verkiezingen 036-5458181,http://www.almere.nl/bestuur/verkiezingen,,NLODSGM0034stembureaus20210317008,d68f048da81f4a958accc2e28e8f650d
27158,Almere,GM0034,Afgiftepunt,,Stadhuis,kantoorfunctie,,,,,,34200000035202,Stadhuisplein,1,,,1315HR,Almere,,143722.715265295,487105.004663816,5.221609974,52.37170648,2021-03-10T09:00:00 tot 2021-03-10T17:00:00,2021-03-10T09:00:00 tot 2021-03-10T17:00:00,2021-03-10T09:00:00 tot 2021-03-10T17:00:00,,,2021-03-10T09:00:00 tot 2021-03-10T17:00:00,2021-03-10T09:00:00 tot 2021-03-10T17:00:00,2021-03-15T07:30:00 tot 2021-03-15T21:00:00,Y,,,,,5,Lelystad,,Team Verkiezingen 036-5458181,http://www.almere.nl/bestuur/verkiezingen,,NLODSGM0034stembureaus20210317008,2517436c8be14f49a2e013cc150f7aa5
27159,Almere,GM0034,Afgiftepunt,,Buurthuis Corrosia,"bijeenkomstfunctie, kantoorfunctie",,,,,,34200000089113,Markt,39,,,1354AP,Almere,,143480.639630686,483182.433812021,5.2181896,52.3364471,2021-03-10T09:00:00 tot 2021-03-10T17:00:00,2021-03-10T09:00:00 tot 2021-03-10T17:00:00,2021-03-10T09:00:00 tot 2021-03-10T17:00:00,,,2021-03-10T09:00:00 tot 2021-03-10T17:00:00,2021-03-10T09:00:00 tot 2021-03-10T17:00:00,,Y,,,,,5,Lelystad,,Team Verkiezingen 036-5458181,http://www.almere.nl/bestuur/verkiezingen,,NLODSGM0034stembureaus20210317008,71c703fabd2040dd958b32ba05bb2a84
27160,Almere,GM0034,Stembureau,437.0,Gymzaal Cranberrylaan dinsdag 16 mrt,sportfunctie,,,,,,34200000059389,Cranberrylaan,32,,,1326JR,Almere,,146008.434917533,486776.969753687,5.2551819,52.3688004,,,,,,,2021-03-16T07:30:00 tot 2021-03-15T21:00:00,,Y,,,,,5,Lelystad,,Team Verkiezingen 036-5458181,http://www.almere.nl/bestuur/verkiezingen,,NLODSGM0034stembureaus20210317008,1ad977a912d344129de38ec41b789a26
27161,Almere,GM0034,Stembureau,469.0,Blaashal Almere Poort dinsdag 16 maart,sportfunctie,,,,,,34200000098385,Jasper Warnerstraat,1001,,,1362LD,Almere,,139287.44778353,483590.988244353,5.1566475,52.3400152,,,,,,,2021-03-16T07:30:00 tot 2021-03-15T21:00:00,,Y,,,,,5,Lelystad,,Team Verkiezingen 036-5458181,http://www.almere.nl/bestuur/verkiezingen,,NLODSGM0034stembureaus20210317008,a46cea46d5214884a274968bcfbc0eba
27162,Almere,GM0034,Afgiftepunt,,Preventiecentrum Almere Buiten,sportfunctie,,,,,,34200000035585,Dwangmolenstraat,8,,,1333GW,Almere,,146956.242351988,489747.654180614,5.2690274,52.3955142,2021-03-10T09:00:00 tot 2021-03-10T17:00:00,2021-03-10T09:00:00 tot 2021-03-10T17:00:00,2021-03-10T09:00:00 tot 2021-03-10T17:00:00,,,2021-03-10T09:00:00 tot 2021-03-10T17:00:00,2021-03-10T09:00:00 tot 2021-03-10T17:00:00,,Y,,,,,5,Lelystad,,Team Verkiezingen 036-5458181,http://www.almere.nl/bestuur/verkiezingen,,NLODSGM0034stembureaus20210317008,cb6a453cf1db4962a5f1dd0a8b0a7e37
27163,Almere,GM0034,Stembureau,100.0,Stadhuis 2,kantoorfunctie,,,,,,34200000035202,Stadhuisplein,1,,,1315HR,Almere,,143722.715265295,487105.004663816,5.221609974,52.37170648,,,,,,,,2021-03-17T07:30:00 tot 2021-03-17T21:00:00,Y,,,Blinden mal ,,5,Lelystad,,Team Verkiezingen 036-5458181,http://www.almere.nl/bestuur/verkiezingen,,NLODSGM0034stembureaus20210317008,f31d1bdfc1b1475d882b3336586e0299
27164,Almere,GM0034,Stembureau,368.0,De Buurtschuur Nobelhorst dinsdag 16 mrt,overige gebruiksfunctie,,,,,,34200000088667,Nobellaan,13,,,1341BJ,Almere,,148140.431973855,485669.972654112,5.28650835101934,52.3588819226109,,,,,,,2021-03-16T07:30:00 tot 2021-03-15T21:00:00,,Y,,,,,5,Lelystad,,Team Verkiezingen 036-5458181,http://www.almere.nl/bestuur/verkiezingen,,NLODSGM0034stembureaus20210317008,c6944168a3f9461487f790d8f821368f
