_id,Gemeente,CBS gemeentecode,Stembureau of Afgiftepunt,Nummer stembureau of afgiftepunt,Naam stembureau of afgiftepunt,Gebruikersdoel het gebouw,Website locatie,Wijknaam,CBS wijknummer,Buurtnaam,CBS buurtnummer,BAG referentienummer,Straatnaam,Huisnummer,Huisletter,Huisnummertoevoeging,Postcode,Plaats,Extra adresaanduiding,X,Y,Longitude,Latitude,Openingstijden 10-03-2021,Openingstijden 11-03-2021,Openingstijden 12-03-2021,Openingstijden 13-03-2021,Openingstijden 14-03-2021,Openingstijden 15-03-2021,Openingstijden 16-03-2021,Openingstijden 17-03-2021,Mindervaliden toegankelijk,Akoestiek,Auditieve hulpmiddelen,Visuele hulpmiddelen,Mindervalide toilet aanwezig,Kieskring ID,Hoofdstembureau,Tellocatie,Contactgegevens,Beschikbaarheid,Verkiezingen,ID,UUID
54050,Utrecht,GM0344,Stembureau,1.0,Stadhuis,"bijeenkomstfunctie, kantoorfunctie",,,,,,344200000078350,Stadhuisbrug,1.0,,,3511KP,Utrecht,,136673.883353532,455987.078793061,5.1197905,52.0918373,,,,,,2021-03-15T07:30:00 tot 2021-03-15T21:00:00,2021-03-16T07:30:00 tot 2021-03-16T21:00:00,2021-03-17T07:30:00 tot 2021-03-17T21:00:00,Y,,Aanwijskaart,"Leesloep, lamp",Y,8,Utrecht,Y,"Team Verkiezingen, verkiezingen@utrecht.nl 030-2862002, Publiekszaken/Team Verkiezingen, Postbus 16200 3500 CE Utrecht",https://www.utrecht.nl/bestuur-en-organisatie/verkiezingen,,NLODSGM0344stembureaus20210317008,8bf98eef20fe40968eb01b5bed94aa2b
54051,Utrecht,GM0344,Afgiftepunt,,Stadhuis,"bijeenkomstfunctie, kantoorfunctie",,,,,,344200000078350,Stadhuisbrug,1.0,,,3511KP,Utrecht,,136470.935779741,455987.830148516,5.1168291,52.0918373,2021-03-10T09:00:00 tot 2021-03-10T17:00:00,2021-03-11T09:00:00 tot 2021-03-11T17:00:00,2021-03-12T09:00:00 tot 2021-03-12T17:00:00,,,2021-03-15T09:00:00 tot 2021-03-15T17:00:00,2021-03-16T09:00:00 tot 2021-03-16T17:00:00,2021-03-17T07:30:00 tot 2021-03-17T21:00:00,Y,,Aanwijskaart,"Leesloep, lamp",Y,8,Utrecht,N,"Team Verkiezingen, verkiezingen@utrecht.nl 030-2862002, Publiekszaken/Team Verkiezingen, Postbus 16200 3500 CE Utrecht",https://www.utrecht.nl/bestuur-en-organisatie/verkiezingen,,NLODSGM0344stembureaus20210317008,51a78fab2b8c4b88be630bcea561bbef
54052,Utrecht,GM0344,Stembureau,503.0,Gymzaal M. van Meel,,,,,,,0,,,,,,,Gymzaal van Basisschool,133963.024763274,458457.182373505,5.080082,52.113942,,,,,,,,2021-03-17T07:30:00 tot 2021-03-17T21:00:00,Y,,Aanwijskaart,"Leesloep, lamp",Y,8,Utrecht,Y,"Team Verkiezingen, verkiezingen@utrecht.nl 030-2862002, Publiekszaken/Team Verkiezingen, Postbus 16200 3500 CE Utrecht",https://www.utrecht.nl/bestuur-en-organisatie/verkiezingen,,NLODSGM0344stembureaus20210317008,5b092e7721d3437590d83cca62e43bbb
54053,Utrecht,GM0344,Stembureau,504.0,Gymzaal Sint-Willibrordusstraat,"onderwijsfunctie, sportfunctie",,,,,,344200000030409,St.-Willibrordusstraat,45.0,,,3553SL,Utrecht,,134450.547094898,457978.058048019,5.0872282,52.109654,,,,,,,,2021-03-17T07:30:00 tot 2021-03-17T21:00:00,Y,,Aanwijskaart,"Leesloep, lamp",N,8,Utrecht,Y,"Team Verkiezingen, verkiezingen@utrecht.nl 030-2862002, Publiekszaken/Team Verkiezingen, Postbus 16200 3500 CE Utrecht",https://www.utrecht.nl/bestuur-en-organisatie/verkiezingen,,NLODSGM0344stembureaus20210317008,4f65cd4c935b4c67916172bf69b6b355
54054,Utrecht,GM0344,Stembureau,505.0,Gymzaal Prinses Margrietstraat,"onderwijsfunctie, sportfunctie",,,,,,344200000042750,Prinses Margrietstraat,10.0,,,3554GE,Utrecht,,134774.71190992,458138.246705392,5.0919507,52.1111057,,,,,,,,2021-03-17T07:30:00 tot 2021-03-17T21:00:00,Y,,Aanwijskaart,"Leesloep, lamp",N,8,Utrecht,Y,"Team Verkiezingen, verkiezingen@utrecht.nl 030-2862002, Publiekszaken/Team Verkiezingen, Postbus 16200 3500 CE Utrecht",https://www.utrecht.nl/bestuur-en-organisatie/verkiezingen,,NLODSGM0344stembureaus20210317008,8153bfc95cfc4c18a05b00b3aca18268
54055,Utrecht,GM0344,Stembureau,506.0,Gymzaal Stauntonstraat,onderwijsfunctie,,,,,,344200000031772,Stauntonstraat,9.0,,,3554EZ,Utrecht,,134845.343451033,458268.09058473,5.0929741,52.1122753,,,,,,,,2021-03-17T07:30:00 tot 2021-03-17T21:00:00,Y,,Aanwijskaart,"Leesloep, lamp",N,8,Utrecht,Y,"Team Verkiezingen, verkiezingen@utrecht.nl 030-2862002, Publiekszaken/Team Verkiezingen, Postbus 16200 3500 CE Utrecht",https://www.utrecht.nl/bestuur-en-organisatie/verkiezingen,,NLODSGM0344stembureaus20210317008,63cd09d664b64ee5a25f0c402d9829fc
54056,Utrecht,GM0344,Stembureau,507.0,Sporthal De Dreef,"industriefunctie, sportfunctie",,,,,,344200000113645,Schooneggendreef,27.0,,,3562GG,Utrecht,,136604.284845073,459248.87981621,5.1185989,52.1211518,,,,,,,,2021-03-17T07:30:00 tot 2021-03-17T21:00:00,Y,,Aanwijskaart,"Leesloep, lamp",Y,8,Utrecht,Y,"Team Verkiezingen, verkiezingen@utrecht.nl 030-2862002, Publiekszaken/Team Verkiezingen, Postbus 16200 3500 CE Utrecht",https://www.utrecht.nl/bestuur-en-organisatie/verkiezingen,,NLODSGM0344stembureaus20210317008,25bd33636f24428197837bfa1c618321
54057,Utrecht,GM0344,Stembureau,16.0,KBS De Catharijnepoort,onderwijsfunctie,,,,,,344200000085364,Staringstraat,1.0,,,3532VM,Utrecht,ingang Busken Huetstraat,135223.417888329,456280.294260654,5.0986087,52.0944228,,,,,,,,2021-03-17T07:30:00 tot 2021-03-17T21:00:00,N,,Aanwijskaart,"Leesloep, lamp",,8,Utrecht,Y,"Team Verkiezingen, verkiezingen@utrecht.nl 030-2862002, Publiekszaken/Team Verkiezingen, Postbus 16200 3500 CE Utrecht",https://www.utrecht.nl/bestuur-en-organisatie/verkiezingen,,NLODSGM0344stembureaus20210317008,3a0468f7834941939ce18f90e7560eeb
54058,Utrecht,GM0344,Stembureau,20.0,OBS De Catharijnepoort,onderwijsfunctie,,,,,,344200000038795,Vleutenseweg,515.0,,,3532HK,Utrecht,ingang Broerestraat,134436.33196636,456348.326789054,5.087119,52.0950056,,,,,,2021-03-15T07:30:00 tot 2021-03-15T21:00:00,2021-03-16T07:30:00 tot 2021-03-16T21:00:00,2021-03-17T07:30:00 tot 2021-03-17T21:00:00,Y,,Aanwijskaart,"Leesloep, lamp",N,8,Utrecht,Y,"Team Verkiezingen, verkiezingen@utrecht.nl 030-2862002, Publiekszaken/Team Verkiezingen, Postbus 16200 3500 CE Utrecht",https://www.utrecht.nl/bestuur-en-organisatie/verkiezingen,,NLODSGM0344stembureaus20210317008,aa2106bc6aa24695b68c8e167ef4a016
54059,Utrecht,GM0344,Stembureau,22.0,Gymzaal OBS Oog in Al,"onderwijsfunctie, sportfunctie",,,,,,344200000175831,Johan Wagenaarkade,45.0,A,,3533TE,Utrecht,,133963.360745577,455491.439518423,5.0802699,52.0872862,,,,,,,,2021-03-17T07:30:00 tot 2021-03-17T21:00:00,N,,Aanwijskaart,"Leesloep, lamp",,8,Utrecht,Y,"Team Verkiezingen, verkiezingen@utrecht.nl 030-2862002, Publiekszaken/Team Verkiezingen, Postbus 16200 3500 CE Utrecht",https://www.utrecht.nl/bestuur-en-organisatie/verkiezingen,,NLODSGM0344stembureaus20210317008,d0998d3464d84de1beded6d61e57f5c6
54060,Utrecht,GM0344,Stembureau,23.0,Gymzaal Franz Schubertstraat,sportfunctie,,,,,,344200000159399,Franz Schubertstraat,20.0,,,3533GW,Utrecht,,134440.284166853,455297.63401833,5.08724,52.0855622,,,,,,,,2021-03-17T07:30:00 tot 2021-03-17T21:00:00,N,,Aanwijskaart,"Leesloep, lamp",,8,Utrecht,Y,"Team Verkiezingen, verkiezingen@utrecht.nl 030-2862002, Publiekszaken/Team Verkiezingen, Postbus 16200 3500 CE Utrecht",https://www.utrecht.nl/bestuur-en-organisatie/verkiezingen,,NLODSGM0344stembureaus20210317008,d033f3b6c83944c8ad3f54566d6752d6
54061,Utrecht,GM0344,Stembureau,25.0,Park Welgelegen (hoofdingang),woonfunctie,,,,,,344200000160472,Leidseweg,140.0,,,3533HD,Utrecht,,134498.7912123,454988.022384201,5.0881122,52.0827816,,,,,,,,2021-03-17T07:30:00 tot 2021-03-17T21:00:00,Y,,Aanwijskaart,"Leesloep, lamp",Y,8,Utrecht,Y,"Team Verkiezingen, verkiezingen@utrecht.nl 030-2862002, Publiekszaken/Team Verkiezingen, Postbus 16200 3500 CE Utrecht",https://www.utrecht.nl/bestuur-en-organisatie/verkiezingen,,NLODSGM0344stembureaus20210317008,7240a4323e744ba1839a96abe8f6a0aa
54062,Utrecht,GM0344,Stembureau,26.0,Buurtcentrum Oase,bijeenkomstfunctie,,,,,,344200000008524,Cartesiusweg,11.0,,,3534BA,Utrecht,,134519.892560684,457276.963292262,5.0882826,52.1033552,,,,,,,,2021-03-17T07:30:00 tot 2021-03-17T21:00:00,Y,,Aanwijskaart,"Leesloep, lamp",Y,8,Utrecht,Y,"Team Verkiezingen, verkiezingen@utrecht.nl 030-2862002, Publiekszaken/Team Verkiezingen, Postbus 16200 3500 CE Utrecht",https://www.utrecht.nl/bestuur-en-organisatie/verkiezingen,,NLODSGM0344stembureaus20210317008,301412dd1d4540969a96760a0a3d0232
54063,Utrecht,GM0344,Stembureau,28.0,Buurthuis Zuilen,"bijeenkomstfunctie, onderwijsfunctie",,,,,,344200000046864,St.-Ludgerusstraat,251.0,,,3553CX,Utrecht,,134422.178268599,458024.181640189,5.0868113,52.1100675,,,,,,,,2021-03-17T07:30:00 tot 2021-03-17T21:00:00,Y,,Aanwijskaart,"Leesloep, lamp",Y,8,Utrecht,Y,"Team Verkiezingen, verkiezingen@utrecht.nl 030-2862002, Publiekszaken/Team Verkiezingen, Postbus 16200 3500 CE Utrecht",https://www.utrecht.nl/bestuur-en-organisatie/verkiezingen,,NLODSGM0344stembureaus20210317008,451e4e8350424743930ecbc1cf0c2e90
54064,Utrecht,GM0344,Stembureau,31.0,Vorstelijk Complex,"bijeenkomstfunctie, onderwijsfunctie",,,,,,344200000143988,Prinses Beatrixlaan,2.0,,,3554JK,Utrecht,,134282.948881826,458721.107705628,5.0847365,52.1163262,,,,,,,,2021-03-17T07:30:00 tot 2021-03-17T21:00:00,Y,,Aanwijskaart,"Leesloep, lamp",Y,8,Utrecht,N,"Team Verkiezingen, verkiezingen@utrecht.nl 030-2862002, Publiekszaken/Team Verkiezingen, Postbus 16200 3500 CE Utrecht",https://www.utrecht.nl/bestuur-en-organisatie/verkiezingen,,NLODSGM0344stembureaus20210317008,1781bed666364123b20108033d674b34
54065,Utrecht,GM0344,Stembureau,32.0,Gymlokaal Prof. H. Bavinckstraat,"bijeenkomstfunctie, onderwijsfunctie",,,,,,344200000009424,Prof. H. Bavinckstraat,5.0,A,,3555GS,Utrecht,,133509.039496201,459058.030025973,5.0734164,52.1193249,,,,,,,,2021-03-17T07:30:00 tot 2021-03-17T21:00:00,N,,Aanwijskaart,"Leesloep, lamp",,8,Utrecht,Y,"Team Verkiezingen, verkiezingen@utrecht.nl 030-2862002, Publiekszaken/Team Verkiezingen, Postbus 16200 3500 CE Utrecht",https://www.utrecht.nl/bestuur-en-organisatie/verkiezingen,,NLODSGM0344stembureaus20210317008,ea29dfecef0e43f982f087b5903007aa
54066,Utrecht,GM0344,Stembureau,33.0,Gymzaal Mereveldlaan,"bijeenkomstfunctie, kantoorfunctie, onderwijsfunctie",,,,,,344200000170455,Mereveldlaan,1.0,,,3454CA,De Meern,"Betreft gymzaal, Mereveldlaan 3",131083.11783725,454855.784454677,5.0382912,52.0814561,,,,,,,,2021-03-17T07:30:00 tot 2021-03-17T21:00:00,N,,Aanwijskaart,"Leesloep, lamp",,8,Utrecht,Y,"Team Verkiezingen, verkiezingen@utrecht.nl 030-2862002, Publiekszaken/Team Verkiezingen, Postbus 16200 3500 CE Utrecht",https://www.utrecht.nl/bestuur-en-organisatie/verkiezingen,,NLODSGM0344stembureaus20210317008,e32932e20d13485a99abd52e277621d3
54067,Utrecht,GM0344,Stembureau,508.0,Gymzaal Bangkokdreef,"bijeenkomstfunctie, onderwijsfunctie",,,,,,344200000125908,Bangkokdreef,2.0,,,3564SC,Utrecht,,135660.039536433,459498.637972711,5.1047975,52.1233644,,,,,,2021-03-15T07:30:00 tot 2021-03-15T21:00:00,2021-03-16T07:30:00 tot 2021-03-16T21:00:00,2021-03-17T07:30:00 tot 2021-03-17T21:00:00,Y,,Aanwijskaart,"Leesloep, lamp",,8,Utrecht,Y,"Team Verkiezingen, verkiezingen@utrecht.nl 030-2862002, Publiekszaken/Team Verkiezingen, Postbus 16200 3500 CE Utrecht",https://www.utrecht.nl/bestuur-en-organisatie/verkiezingen,,NLODSGM0344stembureaus20210317008,3a7748cb03ed48d0aeb3a491f7027707
54068,Utrecht,GM0344,Stembureau,509.0,Gymzaal Pagodedreef,sportfunctie,,,,,,344200000181055,Pagodedreef,4.0,,,3564XS,Utrecht,,135607.431352201,459937.856112331,5.1040043,52.1273102,,,,,,,,2021-03-17T07:30:00 tot 2021-03-17T21:00:00,Y,,Aanwijskaart,"Leesloep, lamp",Y,8,Utrecht,Y,"Team Verkiezingen, verkiezingen@utrecht.nl 030-2862002, Publiekszaken/Team Verkiezingen, Postbus 16200 3500 CE Utrecht",https://www.utrecht.nl/bestuur-en-organisatie/verkiezingen,,NLODSGM0344stembureaus20210317008,c414a4aa491b4828b5cf44976ccbc76b
54069,Utrecht,GM0344,Stembureau,511.0,Gymzaal Prof. Van Bemmelenlaan,"onderwijsfunctie, sportfunctie",,,,,,344200000148860,Prof. van Bemmelenlaan,51.0,A,,3571EL,Utrecht,,137263.148028076,457940.309955245,5.1282873,52.109412,,,,,,2021-03-16T07:30:00 tot 2021-03-16T21:00:00,2021-03-15T07:30:00 tot 2021-03-15T21:00:00,2021-03-17T07:30:00 tot 2021-03-17T21:00:00,Y,,Aanwijskaart,"Leesloep, lamp",Y,8,Utrecht,Y,"Team Verkiezingen, verkiezingen@utrecht.nl 030-2862002, Publiekszaken/Team Verkiezingen, Postbus 16200 3500 CE Utrecht",https://www.utrecht.nl/bestuur-en-organisatie/verkiezingen,,NLODSGM0344stembureaus20210317008,4ac9cae43b3e4494ac39eaf6a3ad7147
54070,Utrecht,GM0344,Stembureau,41.0,Buurthuis De Uithoek,bijeenkomstfunctie,,,,,,344200000010141,2e Daalsedijk,2.0,B,,3551EJ,Utrecht,,135520.989159085,456665.995283487,5.102929,52.0979,,,,,,,,2021-03-17T07:30:00 tot 2021-03-17T21:00:00,Y,,Aanwijskaart,"Leesloep, lamp",Y,8,Utrecht,Y,"Team Verkiezingen, verkiezingen@utrecht.nl 030-2862002, Publiekszaken/Team Verkiezingen, Postbus 16200 3500 CE Utrecht",https://www.utrecht.nl/bestuur-en-organisatie/verkiezingen,,NLODSGM0344stembureaus20210317008,f6dc43d6ddb54fa6900288962cc66035
54071,Utrecht,GM0344,Stembureau,513.0,Gymzaal Teun de Jagerdreef,bijeenkomstfunctie,,,,,,344200000180425,Teun de Jagerdreef,1.0,A,,3561JK,Utrecht,,136603.128970171,457949.226717394,5.1186522,52.1094706,,,,,,,,2021-03-17T07:30:00 tot 2021-03-17T21:00:00,Y,,Aanwijskaart,"Leesloep, lamp",N,8,Utrecht,Y,"Team Verkiezingen, verkiezingen@utrecht.nl 030-2862002, Publiekszaken/Team Verkiezingen, Postbus 16200 3500 CE Utrecht",https://www.utrecht.nl/bestuur-en-organisatie/verkiezingen,,NLODSGM0344stembureaus20210317008,4a0a7887e5aa457daf4049a6c684b735
54072,Utrecht,GM0344,Stembureau,517.0,Gymzaal Oude Kerkstraat,onderwijsfunctie,,,,,,344200000135736,Oude Kerkstraat,2.0,A,,3572TJ,Utrecht,,137695.800732175,456430.052674721,5.1346796,52.0958516,,,,,,,,2021-03-17T07:30:00 tot 2021-03-17T21:00:00,Y,,Aanwijskaart,"Leesloep, lamp",N,8,Utrecht,Y,"Team Verkiezingen, verkiezingen@utrecht.nl 030-2862002, Publiekszaken/Team Verkiezingen, Postbus 16200 3500 CE Utrecht",https://www.utrecht.nl/bestuur-en-organisatie/verkiezingen,,NLODSGM0344stembureaus20210317008,d390359cd1f440aa8eee0afb62de706d
54073,Utrecht,GM0344,Stembureau,45.0,Kerkcentrum Nicolaas Monica,bijeenkomstfunctie,,,,,,344200000010892,Boerhaaveplein,199.0,,,3552CT,Utrecht,,135631.750058556,457306.979448205,5.104509,52.103665,,,,,,,,2021-03-17T07:30:00 tot 2021-03-17T21:00:00,Y,,Aanwijskaart,"Leesloep, lamp",Y,8,Utrecht,Y,"Team Verkiezingen, verkiezingen@utrecht.nl 030-2862002, Publiekszaken/Team Verkiezingen, Postbus 16200 3500 CE Utrecht",https://www.utrecht.nl/bestuur-en-organisatie/verkiezingen,,NLODSGM0344stembureaus20210317008,53d82b1181c74374961f185d8c890522
54074,Utrecht,GM0344,Stembureau,518.0,Gymzaal Deken Roesstraat,sportfunctie,,,,,,344200000171504,Deken Roesstraat,2.0,G,,3581RX,Utrecht,,137583.613521231,456325.169646526,5.1330478,52.0949054,,,,,,,,2021-03-17T07:30:00 tot 2021-03-17T21:00:00,Y,,Aanwijskaart,"Leesloep, lamp",N,8,Utrecht,Y,"Team Verkiezingen, verkiezingen@utrecht.nl 030-2862002, Publiekszaken/Team Verkiezingen, Postbus 16200 3500 CE Utrecht",https://www.utrecht.nl/bestuur-en-organisatie/verkiezingen,,NLODSGM0344stembureaus20210317008,acc55583573041b4bb212a7159579c4f
54075,Utrecht,GM0344,Stembureau,47.0,Muziekhuis Utrecht,"bijeenkomstfunctie, industriefunctie",,,,,,344200000119193,Loevenhoutsedijk,301.0,,,3552XE,Utrecht,,135959.900347547,457739.317311902,5.1092744,52.1075622,,,,,,,,2021-03-17T07:30:00 tot 2021-03-17T21:00:00,Y,,Aanwijskaart,"Leesloep, lamp",Y,8,Utrecht,Y,"Team Verkiezingen, verkiezingen@utrecht.nl 030-2862002, Publiekszaken/Team Verkiezingen, Postbus 16200 3500 CE Utrecht",https://www.utrecht.nl/bestuur-en-organisatie/verkiezingen,,NLODSGM0344stembureaus20210317008,86d16e465f854a74a58e737d4fd56805
54076,Utrecht,GM0344,Stembureau,519.0,Gymzaal Weerdsingel,onderwijsfunctie,,,,,,344200000030494,Weerdsingel W.Z.,22.0,,,3513BB,Utrecht,,136087.250235207,456477.63910899,5.1112033,52.0962267,,,,,,,,2021-03-17T07:30:00 tot 2021-03-17T21:00:00,Y,,Aanwijskaart,"Leesloep, lamp",N,8,Utrecht,Y,"Team Verkiezingen, verkiezingen@utrecht.nl 030-2862002, Publiekszaken/Team Verkiezingen, Postbus 16200 3500 CE Utrecht",https://www.utrecht.nl/bestuur-en-organisatie/verkiezingen,,NLODSGM0344stembureaus20210317008,26b7727a9e61406b9fa04516ce1f1869
54077,Utrecht,GM0344,Stembureau,49.0,Ondernemingshuis Overvecht,"bijeenkomstfunctie, onderwijsfunctie",,,,,,344200000144896,Rhônedreef,40.0,,,3561VA,Utrecht,,136408.326759193,458095.401792516,5.1158006,52.1107779,,,,,,,,2021-03-17T07:30:00 tot 2021-03-17T21:00:00,Y,,Aanwijskaart,"Leesloep, lamp",N,8,Utrecht,Y,"Team Verkiezingen, verkiezingen@utrecht.nl 030-2862002, Publiekszaken/Team Verkiezingen, Postbus 16200 3500 CE Utrecht",https://www.utrecht.nl/bestuur-en-organisatie/verkiezingen,,NLODSGM0344stembureaus20210317008,fd7147112627404180d4eb15c873f5b1
54078,Utrecht,GM0344,Stembureau,523.0,Gymzaal Goeree 4,onderwijsfunctie,,,,,,344200000030494,Weerdsingel W.Z.,22.0,,,3513BB,Utrecht,,137757.128378567,452608.387499508,5.1357676,52.0615045,,,,,,,,2021-03-17T07:30:00 tot 2021-03-17T21:00:00,N,,Aanwijskaart,"Leesloep, lamp",,8,Utrecht,Y,"Team Verkiezingen, verkiezingen@utrecht.nl 030-2862002, Publiekszaken/Team Verkiezingen, Postbus 16200 3500 CE Utrecht",https://www.utrecht.nl/bestuur-en-organisatie/verkiezingen,,NLODSGM0344stembureaus20210317008,805dcd705b9a49d7927ee56bd2d9e1a9
54079,Utrecht,GM0344,Stembureau,52.0,Johannescentrum,"bijeenkomstfunctie, industriefunctie",,,,,,344200000020574,Moezeldreef,400.0,,,3561GD,Utrecht,,136897.159898141,458399.476334856,5.1229204,52.1135271,,,,,,,,2021-03-17T07:30:00 tot 2021-03-17T21:00:00,Y,,Aanwijskaart,"Leesloep, lamp",Y,8,Utrecht,Y,"Team Verkiezingen, verkiezingen@utrecht.nl 030-2862002, Publiekszaken/Team Verkiezingen, Postbus 16200 3500 CE Utrecht",https://www.utrecht.nl/bestuur-en-organisatie/verkiezingen,,NLODSGM0344stembureaus20210317008,a97ea85fd4dd47b9b9dc683b4fa16e0b
54080,Utrecht,GM0344,Stembureau,53.0,PC Basisschool Op Dreef,"bijeenkomstfunctie, kantoorfunctie, onderwijsfunctie",,,,,,344200000170341,Dianadreef,27.0,,,3561AA,Utrecht,,137333.648701688,458797.332307687,5.129272,52.1171171,,,,,,,,2021-03-17T07:30:00 tot 2021-03-17T21:00:00,N,,Aanwijskaart,"Leesloep, lamp",,8,Utrecht,Y,"Team Verkiezingen, verkiezingen@utrecht.nl 030-2862002, Publiekszaken/Team Verkiezingen, Postbus 16200 3500 CE Utrecht",https://www.utrecht.nl/bestuur-en-organisatie/verkiezingen,,NLODSGM0344stembureaus20210317008,830504b4568d4a2dacc02dd0410d13ff
54081,Utrecht,GM0344,Stembureau,525.0,Gymzaal Lingestraat,"bijeenkomstfunctie, sportfunctie",,,,,,344200000045877,Lingestraat,2.0,B,,3522TM,Utrecht,,136486.494260684,453757.709933208,5.1171771,52.0717936,,,,,,,,2021-03-17T07:30:00 tot 2021-03-17T21:00:00,N,,Aanwijskaart,"Leesloep, lamp",,8,Utrecht,Y,"Team Verkiezingen, verkiezingen@utrecht.nl 030-2862002, Publiekszaken/Team Verkiezingen, Postbus 16200 3500 CE Utrecht",https://www.utrecht.nl/bestuur-en-organisatie/verkiezingen,,NLODSGM0344stembureaus20210317008,8c17fa9f8c0c4b7bbbdcbb603ec222c0
54082,Utrecht,GM0344,Stembureau,56.0,Sociëteit Dombra,bijeenkomstfunctie,,,,,,344200000008132,Dommeringdreef,60.0,,,3562AL,Utrecht,,136820.550530586,458925.951567392,5.1217739,52.1182565,,,,,,,,2021-03-17T07:30:00 tot 2021-03-17T21:00:00,Y,,Aanwijskaart,"Leesloep, lamp",Y,8,Utrecht,Y,"Team Verkiezingen, verkiezingen@utrecht.nl 030-2862002, Publiekszaken/Team Verkiezingen, Postbus 16200 3500 CE Utrecht",https://www.utrecht.nl/bestuur-en-organisatie/verkiezingen,,NLODSGM0344stembureaus20210317008,46a9050bb6334d0bbb4e2ef09ea42528
54083,Utrecht,GM0344,Stembureau,540.0,Gymzaal Schoolstraat,bijeenkomstfunctie,,,,,,344200000180996,Schoolstraat,13.0,,,3451AA,Vleuten,,129388.759372953,457738.333534009,5.013357,52.1072883,,,,,,2021-03-15T07:30:00 tot 2021-03-15T21:00:00,2021-03-16T07:30:00 tot 2021-03-16T21:00:00,2021-03-17T07:30:00 tot 2021-03-17T21:00:00,Y,,Aanwijskaart,"Leesloep, lamp",N,8,Utrecht,Y,"Team Verkiezingen, verkiezingen@utrecht.nl 030-2862002, Publiekszaken/Team Verkiezingen, Postbus 16200 3500 CE Utrecht",https://www.utrecht.nl/bestuur-en-organisatie/verkiezingen,,NLODSGM0344stembureaus20210317008,7156b693c1b14460b3e526042e622e8e
54084,Utrecht,GM0344,Stembureau,61.0,OBO Klopvaart,onderwijsfunctie,,,,,,344200000181501,Eufraatdreef,1.0,,,3564XZ,Utrecht,,135410.879360182,459777.754398815,5.1011432,52.1258643,,,,,,,,2021-03-17T07:30:00 tot 2021-03-17T21:00:00,Y,,Aanwijskaart,"Leesloep, lamp",Y,8,Utrecht,N,"Team Verkiezingen, verkiezingen@utrecht.nl 030-2862002, Publiekszaken/Team Verkiezingen, Postbus 16200 3500 CE Utrecht",https://www.utrecht.nl/bestuur-en-organisatie/verkiezingen,,NLODSGM0344stembureaus20210317008,ec2f517686e24bb681b752f4b2b0466a
54085,Utrecht,GM0344,Stembureau,529.0,Gymzaal Marco Pololaan,sportfunctie,,,,,,344200000170753,Marco Pololaan,487.0,,,3526GH,Utrecht,,135266.637698751,453087.25769577,5.099424,52.0657255,,,,,,,,2021-03-17T07:30:00 tot 2021-03-17T21:00:00,N,,Aanwijskaart,"Leesloep, lamp",,8,Utrecht,Y,"Team Verkiezingen, verkiezingen@utrecht.nl 030-2862002, Publiekszaken/Team Verkiezingen, Postbus 16200 3500 CE Utrecht",https://www.utrecht.nl/bestuur-en-organisatie/verkiezingen,,NLODSGM0344stembureaus20210317008,217af2490d18418bb6d2fac514f8faa7
54086,Utrecht,GM0344,Stembureau,64.0,Buurthuis De Boog,"bijeenkomstfunctie, kantoorfunctie",,,,,,344200000016920,Gambiadreef,60.0,,,3564ES,Utrecht,,135877.866178904,459235.253439101,5.107993,52.1210047,,,,,,,,2021-03-17T07:30:00 tot 2021-03-17T21:00:00,Y,,Aanwijskaart,"Leesloep, lamp",Y,8,Utrecht,Y,"Team Verkiezingen, verkiezingen@utrecht.nl 030-2862002, Publiekszaken/Team Verkiezingen, Postbus 16200 3500 CE Utrecht",https://www.utrecht.nl/bestuur-en-organisatie/verkiezingen,,NLODSGM0344stembureaus20210317008,c2f909552ba64f5c9dff4cacaec9038c
54087,Utrecht,GM0344,Stembureau,65.0,Katholieke basisschool Mattheus,"bijeenkomstfunctie, kantoorfunctie, onderwijsfunctie, sportfunctie",,,,,,344200000182220,Bantoedreef,2.0,,,3564RA,Utrecht,,135977.140530078,459303.843269549,5.1094387,52.1216246,,,,,,,,2021-03-17T07:30:00 tot 2021-03-17T21:00:00,Y,,Aanwijskaart,"Leesloep, lamp",Y,8,Utrecht,Y,"Team Verkiezingen, verkiezingen@utrecht.nl 030-2862002, Publiekszaken/Team Verkiezingen, Postbus 16200 3500 CE Utrecht",https://www.utrecht.nl/bestuur-en-organisatie/verkiezingen,,NLODSGM0344stembureaus20210317008,fd2cfc61b1d54fc397cf24d70d2f8fd0
54088,Utrecht,GM0344,Stembureau,521.0,Gymzaal Van Imhoff,"bijeenkomstfunctie, sportfunctie",,,,,,344200000130700,Van Imhoffstraat,2.0,,,3531HW,Utrecht,,134996.758313078,455979.428569986,5.0953188,52.0917105,,,,,,2021-03-15T07:30:00 tot 2021-03-15T21:00:00,2021-03-16T07:30:00 tot 2021-03-16T21:00:00,2021-03-17T07:30:00 tot 2021-03-17T21:00:00,Y,,Aanwijskaart,"Leesloep, lamp",Y,8,Utrecht,Y,"Team Verkiezingen, verkiezingen@utrecht.nl 030-2862002, Publiekszaken/Team Verkiezingen, Postbus 16200 3500 CE Utrecht",https://www.utrecht.nl/bestuur-en-organisatie/verkiezingen,,NLODSGM0344stembureaus20210317008,a8fdf06d9c614d55990043a274ccf798
54089,Utrecht,GM0344,Stembureau,70.0,Stadsboerderij/Speeltuin Griftsteede,"industriefunctie, onderwijsfunctie",,,,,,344200000149148,Van Swindenstraat,129.0,,,3514XR,Utrecht,,137296.418508884,457071.248099554,5.1288181,52.101602,,,,,,,,2021-03-17T07:30:00 tot 2021-03-17T21:00:00,Y,,Aanwijskaart,"Leesloep, lamp",Y,8,Utrecht,Y,"Team Verkiezingen, verkiezingen@utrecht.nl 030-2862002, Publiekszaken/Team Verkiezingen, Postbus 16200 3500 CE Utrecht",https://www.utrecht.nl/bestuur-en-organisatie/verkiezingen,,NLODSGM0344stembureaus20210317008,3cd50caa0e424a6996df2b499690dc55
54090,Utrecht,GM0344,Stembureau,71.0,Gymzaal Maria van Reedestraat,"onderwijsfunctie, sportfunctie",,,,,,344200000033208,Maria van Reedestraat,4.0,,,3515XJ,Utrecht,ingang BF Suermanstr,136755.478796133,457288.368412571,5.1209115,52.1035359,,,,,,,,2021-03-17T07:30:00 tot 2021-03-17T21:00:00,Y,,Aanwijskaart,"Leesloep, lamp",Y,8,Utrecht,Y,"Team Verkiezingen, verkiezingen@utrecht.nl 030-2862002, Publiekszaken/Team Verkiezingen, Postbus 16200 3500 CE Utrecht",https://www.utrecht.nl/bestuur-en-organisatie/verkiezingen,,NLODSGM0344stembureaus20210317008,88619efea52649b9add9dfeea5ea5798
54091,Utrecht,GM0344,Stembureau,72.0,Buurthuis De Leeuw,"bijeenkomstfunctie, onderwijsfunctie",,,,,,344200000149400,Samuel van Houtenstraat,1.0,,,3515EA,Utrecht,,136445.671660825,457383.729340669,5.1163845,52.1043827,,,,,,2021-03-15T07:30:00 tot 2021-03-15T21:00:00,2021-03-16T07:30:00 tot 2021-03-16T21:00:00,2021-03-17T07:30:00 tot 2021-03-17T21:00:00,N,,Aanwijskaart,"Leesloep, lamp",,8,Utrecht,Y,"Team Verkiezingen, verkiezingen@utrecht.nl 030-2862002, Publiekszaken/Team Verkiezingen, Postbus 16200 3500 CE Utrecht",https://www.utrecht.nl/bestuur-en-organisatie/verkiezingen,,NLODSGM0344stembureaus20210317008,b398523e59ae40178da7f62ced67259f
54092,Utrecht,GM0344,Stembureau,74.0,ZIMIHC theater Wittevrouwen,onderwijsfunctie,,,,,,344200000001772,Bouwstraat,55.0,,,3572SP,Utrecht,,137545.272413739,456532.236715565,5.1324777,52.0967653,,,,,,,,2021-03-17T07:30:00 tot 2021-03-17T21:00:00,N,,Aanwijskaart,"Leesloep, lamp",,8,Utrecht,N,"Team Verkiezingen, verkiezingen@utrecht.nl 030-2862002, Publiekszaken/Team Verkiezingen, Postbus 16200 3500 CE Utrecht",https://www.utrecht.nl/bestuur-en-organisatie/verkiezingen,,NLODSGM0344stembureaus20210317008,ecc94eb36b8e419081f79355c76c5ac8
54093,Utrecht,GM0344,Stembureau,78.0,School Nimeto Utrecht,onderwijsfunctie,,,,,,344200000133610,Smijerslaan,2.0,,,3572LP,Utrecht,,138138.350029158,456959.044292377,5.1411116,52.1006198,,,,,,,,2021-03-17T07:30:00 tot 2021-03-17T21:00:00,Y,,Aanwijskaart,"Leesloep, lamp",Y,8,Utrecht,Y,"Team Verkiezingen, verkiezingen@utrecht.nl 030-2862002, Publiekszaken/Team Verkiezingen, Postbus 16200 3500 CE Utrecht",https://www.utrecht.nl/bestuur-en-organisatie/verkiezingen,,NLODSGM0344stembureaus20210317008,6c0250d6ad1146d88023d41a95984796
54094,Utrecht,GM0344,Stembureau,531.0,Gymzaal Van Bijnkershoeklaan,onderwijsfunctie,,,,,,344200000008407,Van Bijnkershoeklaan,6.0,,,3527XL,Utrecht,,135143.542815061,454717.016194607,5.0975341,52.0803693,,,,,,,,2021-03-17T07:30:00 tot 2021-03-17T21:00:00,N,,Aanwijskaart,"Leesloep, lamp",,8,Utrecht,Y,"Team Verkiezingen, verkiezingen@utrecht.nl 030-2862002, Publiekszaken/Team Verkiezingen, Postbus 16200 3500 CE Utrecht",https://www.utrecht.nl/bestuur-en-organisatie/verkiezingen,,NLODSGM0344stembureaus20210317008,1e604bbc574e40e0a2c0b95f4cf4e7c8
54095,Utrecht,GM0344,Stembureau,81.0,Jeruzalemkerk,"bijeenkomstfunctie, kantoorfunctie",,,,,,344200000195215,Kouwerplantsoen,1.0,A,,3571LS,Utrecht,ingang kapteynlaan,137814.402027583,457597.796161041,5.1363515,52.1063509,,,,,,,,2021-03-17T07:30:00 tot 2021-03-17T21:00:00,N,,Aanwijskaart,"Leesloep, lamp",,8,Utrecht,Y,"Team Verkiezingen, verkiezingen@utrecht.nl 030-2862002, Publiekszaken/Team Verkiezingen, Postbus 16200 3500 CE Utrecht",https://www.utrecht.nl/bestuur-en-organisatie/verkiezingen,,NLODSGM0344stembureaus20210317008,f52938e5af034242ab287081dc612219
54096,Utrecht,GM0344,Stembureau,82.0,USV Hercules,"bijeenkomstfunctie, sportfunctie",,,,,,344200000033108,Voorveldselaan,2.0,,,3573PV,Utrecht,,138616.783110954,457713.559389751,5.1480579,52.1074157,,,,,,,,2021-03-17T07:30:00 tot 2021-03-17T21:00:00,N,,Aanwijskaart,"Leesloep, lamp",,8,Utrecht,Y,"Team Verkiezingen, verkiezingen@utrecht.nl 030-2862002, Publiekszaken/Team Verkiezingen, Postbus 16200 3500 CE Utrecht",https://www.utrecht.nl/bestuur-en-organisatie/verkiezingen,,NLODSGM0344stembureaus20210317008,1b301ecd95fd42128ec3b01b56ab150f
54097,Utrecht,GM0344,Stembureau,532.0,Sporthal Nieuw Welgelegen,"industriefunctie, onderwijsfunctie",,,,,,344200000115138,Grebbeberglaan,13.0,,,3527VX,Utrecht,,135298.308990735,454663.775339217,5.0997949,52.0798963,,,,,,,,2021-03-17T07:30:00 tot 2021-03-17T21:00:00,Y,,Aanwijskaart,"Leesloep, lamp",Y,8,Utrecht,Y,"Team Verkiezingen, verkiezingen@utrecht.nl 030-2862002, Publiekszaken/Team Verkiezingen, Postbus 16200 3500 CE Utrecht",https://www.utrecht.nl/bestuur-en-organisatie/verkiezingen,,NLODSGM0344stembureaus20210317008,fa2bf18a7b1441f2a2c94902d71d1330
54098,Utrecht,GM0344,Stembureau,85.0,OBS Tuindorp,onderwijsfunctie,,,,,,344200000057350,Prof. van Bemmelenlaan,34.0,,,3571EN,Utrecht,,137353.768911952,457991.256503531,5.1296075,52.1098728,,,,,,,,2021-03-17T07:30:00 tot 2021-03-17T21:00:00,N,,Aanwijskaart,"Leesloep, lamp",,8,Utrecht,Y,"Team Verkiezingen, verkiezingen@utrecht.nl 030-2862002, Publiekszaken/Team Verkiezingen, Postbus 16200 3500 CE Utrecht",https://www.utrecht.nl/bestuur-en-organisatie/verkiezingen,,NLODSGM0344stembureaus20210317008,61c52573f18f4def8f195bbf020e6d9f
54099,Utrecht,GM0344,Stembureau,535.0,Gymzaal Emile Hullebroeckstraat,"industriefunctie, sportfunctie",,,,,,344200000116636,Emile Hullebroeckstraat,64.0,,,3543BZ,Utrecht,,131208.407550638,457115.971032396,5.0399613,52.1017758,,,,,,,,2021-03-17T07:30:00 tot 2021-03-17T21:00:00,Y,,Aanwijskaart,"Leesloep, lamp",Y,8,Utrecht,Y,"Team Verkiezingen, verkiezingen@utrecht.nl 030-2862002, Publiekszaken/Team Verkiezingen, Postbus 16200 3500 CE Utrecht",https://www.utrecht.nl/bestuur-en-organisatie/verkiezingen,,NLODSGM0344stembureaus20210317008,929ccb29d81140b782bcb93a196bbdfc
54100,Utrecht,GM0344,Stembureau,88.0,Parnassos,"bijeenkomstfunctie, kantoorfunctie",,,,,,344200000085025,Kruisstraat,201.0,,,3581GK,Utrecht,,137395.379992959,456244.834498489,5.1303051,52.0941774,,,,,,,,2021-03-17T07:30:00 tot 2021-03-17T21:00:00,Y,,Aanwijskaart,"Leesloep, lamp",Y,8,Utrecht,Y,"Team Verkiezingen, verkiezingen@utrecht.nl 030-2862002, Publiekszaken/Team Verkiezingen, Postbus 16200 3500 CE Utrecht",https://www.utrecht.nl/bestuur-en-organisatie/verkiezingen,,NLODSGM0344stembureaus20210317008,4f3db69a74c54ffbb7f5f74bc3ae3353
54101,Utrecht,GM0344,Stembureau,89.0,Nieuwe Regentesseschool,onderwijsfunctie,,,,,,344200000141092,Kruisdwarsstraat,6.0,,,3581GL,Utrecht,,137499.523091035,456208.007290709,5.1318267,52.0938497,,,,,,,,2021-03-17T07:30:00 tot 2021-03-17T21:00:00,N,,Aanwijskaart,"Leesloep, lamp",,8,Utrecht,Y,"Team Verkiezingen, verkiezingen@utrecht.nl 030-2862002, Publiekszaken/Team Verkiezingen, Postbus 16200 3500 CE Utrecht",https://www.utrecht.nl/bestuur-en-organisatie/verkiezingen,,NLODSGM0344stembureaus20210317008,bd0cf55546d24c259241ed79a8ddd972
54102,Utrecht,GM0344,Stembureau,542.0,Bij de Buren Parkwijk,"woonfunctie, bijeenkomstfunctie, kantoorfunctie",,,,,,344200000106831,Eerste Oosterparklaan,76.0,,,3544AK,Utrecht,,132075.575027258,455628.960511731,5.0527175,52.0884473,,,,,,,,2021-03-17T07:30:00 tot 2021-03-17T21:00:00,Y,,Aanwijskaart,"Leesloep, lamp",Y,8,Utrecht,N,"Team Verkiezingen, verkiezingen@utrecht.nl 030-2862002, Publiekszaken/Team Verkiezingen, Postbus 16200 3500 CE Utrecht",https://www.utrecht.nl/bestuur-en-organisatie/verkiezingen,,NLODSGM0344stembureaus20210317008,6d7034ce350643918ae773732f3a3ebd
54103,Utrecht,GM0344,Stembureau,91.0,Podium Oost,bijeenkomstfunctie,,,,,,344200000022760,Oudwijkerdwarsstraat,148.0,,,3581LJ,Utrecht,,137734.968718448,455607.749262939,5.1352928,52.088462,,,,,,,,2021-03-17T07:30:00 tot 2021-03-17T21:00:00,Y,,Aanwijskaart,"Leesloep, lamp",Y,8,Utrecht,Y,"Team Verkiezingen, verkiezingen@utrecht.nl 030-2862002, Publiekszaken/Team Verkiezingen, Postbus 16200 3500 CE Utrecht",https://www.utrecht.nl/bestuur-en-organisatie/verkiezingen,,NLODSGM0344stembureaus20210317008,75c9d45691b94a3f8b0e612bd2084648
54104,Utrecht,GM0344,Stembureau,92.0,Sporting '70,"bijeenkomstfunctie, sportfunctie",,,,,,344200000154012,Voorveldselaan,4.0,,,3573PV,Utrecht,,138760.226187594,457478.852994159,5.1501629,52.1053104,,,,,,,,2021-03-17T07:30:00 tot 2021-03-17T21:00:00,Y,,Aanwijskaart,"Leesloep, lamp",Y,8,Utrecht,Y,"Team Verkiezingen, verkiezingen@utrecht.nl 030-2862002, Publiekszaken/Team Verkiezingen, Postbus 16200 3500 CE Utrecht",https://www.utrecht.nl/bestuur-en-organisatie/verkiezingen,,NLODSGM0344stembureaus20210317008,016c3280b4414580bab9d44dda86547a
54105,Utrecht,GM0344,Stembureau,93.0,Basisschool De Odyssee,onderwijsfunctie,,,,,,344200000062696,Homeruslaan,40.0,,,3581MJ,Utrecht,,137764.961357985,455332.810943206,5.1357443,52.0859918,,,,,,,,2021-03-17T07:30:00 tot 2021-03-17T21:00:00,N,,Aanwijskaart,"Leesloep, lamp",,8,Utrecht,,"Team Verkiezingen, verkiezingen@utrecht.nl 030-2862002, Publiekszaken/Team Verkiezingen, Postbus 16200 3500 CE Utrecht",https://www.utrecht.nl/bestuur-en-organisatie/verkiezingen,,NLODSGM0344stembureaus20210317008,6e07b44909394b038abc3403f8decf8d
54106,Utrecht,GM0344,Stembureau,553.0,Buurthuis De Speler,"bijeenkomstfunctie, sportfunctie",,,,,,344200000158912,Thorbeckelaan,18.0,,,3552CS,Utrecht,,135205.164787915,457658.906594313,5.0982623,52.106813,,,,,,,,2021-03-17T07:30:00 tot 2021-03-17T21:00:00,Y,,Aanwijskaart,"Leesloep, lamp",Y,8,Utrecht,N,"Team Verkiezingen, verkiezingen@utrecht.nl 030-2862002, Publiekszaken/Team Verkiezingen, Postbus 16200 3500 CE Utrecht",https://www.utrecht.nl/bestuur-en-organisatie/verkiezingen,,NLODSGM0344stembureaus20210317008,5b949622725f470c94b0d808f20bea52
54107,Utrecht,GM0344,Stembureau,95.0,Buurthuis Sterrenzicht,bijeenkomstfunctie,,,,,,344200000015108,Keerkringplein,40.0,,,3582PM,Utrecht,,137230.808538116,454767.997299008,5.1279805,52.0808984,,,,,,,,2021-03-17T07:30:00 tot 2021-03-17T21:00:00,Y,,Aanwijskaart,"Leesloep, lamp",Y,8,Utrecht,Y,"Team Verkiezingen, verkiezingen@utrecht.nl 030-2862002, Publiekszaken/Team Verkiezingen, Postbus 16200 3500 CE Utrecht",https://www.utrecht.nl/bestuur-en-organisatie/verkiezingen,,NLODSGM0344stembureaus20210317008,567d8a79c2a54e019c254272ff1851e0
54108,Utrecht,GM0344,Stembureau,96.0,Gymzaal Burg. Fockema Andreaelaan,onderwijsfunctie,,,,,,344200000108658,Burgemeester Fockema Andreaelaan,9.0,,,3582KA,Utrecht,,137803.609364335,454945.214632972,5.1363277,52.0825093,,,,,,,,2021-03-17T07:30:00 tot 2021-03-17T21:00:00,Y,,Aanwijskaart,"Leesloep, lamp",Y,8,Utrecht,Y,"Team Verkiezingen, verkiezingen@utrecht.nl 030-2862002, Publiekszaken/Team Verkiezingen, Postbus 16200 3500 CE Utrecht",https://www.utrecht.nl/bestuur-en-organisatie/verkiezingen,,NLODSGM0344stembureaus20210317008,7a2d220e66944332921dbd05e4de608f
54109,Utrecht,GM0344,Stembureau,99.0,Rode Kruis,"bijeenkomstfunctie, kantoorfunctie",,,,,,344200000053728,Koningsweg,2.0,,,3582GE,Utrecht,,137588.673334058,454381.773969035,5.1332208,52.0774384,,,,,,2021-03-17T07:30:00 tot 2021-03-17T21:00:00,2021-03-17T07:30:00 tot 2021-03-17T21:00:00,2021-03-17T07:30:00 tot 2021-03-17T21:00:00,Y,,Aanwijskaart,"Leesloep, lamp",Y,8,Utrecht,Y,"Team Verkiezingen, verkiezingen@utrecht.nl 030-2862002, Publiekszaken/Team Verkiezingen, Postbus 16200 3500 CE Utrecht",https://www.utrecht.nl/bestuur-en-organisatie/verkiezingen,,NLODSGM0344stembureaus20210317008,946a42d978c941179503ef4eab1f06bc
54110,Utrecht,GM0344,Stembureau,103.0,Daltonschool Rijnsweerd,onderwijsfunctie,,,,,,344200000101457,Jan Muschlaan,24.0,,,3584GV,Utrecht,,138954.883531701,455396.780253722,5.1531021,52.0866025,,,,,,,,2021-03-17T07:30:00 tot 2021-03-17T21:00:00,Y,,Aanwijskaart,"Leesloep, lamp",Y,8,Utrecht,Y,"Team Verkiezingen, verkiezingen@utrecht.nl 030-2862002, Publiekszaken/Team Verkiezingen, Postbus 16200 3500 CE Utrecht",https://www.utrecht.nl/bestuur-en-organisatie/verkiezingen,,NLODSGM0344stembureaus20210317008,18e2114e4c6e4316b14da37789cd4d7d
54111,Utrecht,GM0344,Stembureau,537.0,Gymzaal Voorn,"bijeenkomstfunctie, sportfunctie",,,,,,344200000097922,Akkrumerraklaan,131.0,,,3544TT,Utrecht,,132980.084558207,455232.638955322,5.0659404,52.0849219,,,,,,,,2021-03-17T07:30:00 tot 2021-03-17T21:00:00,Y,,Aanwijskaart,"Leesloep, lamp",N,8,Utrecht,Y,"Team Verkiezingen, verkiezingen@utrecht.nl 030-2862002, Publiekszaken/Team Verkiezingen, Postbus 16200 3500 CE Utrecht",https://www.utrecht.nl/bestuur-en-organisatie/verkiezingen,,NLODSGM0344stembureaus20210317008,b87c06b3839a4fb8aeb2c9abcce4c675
54112,Utrecht,GM0344,Stembureau,107.0,Kinderboerderij Nieuw Rotsoord,"bijeenkomstfunctie, overige gebruiksfunctie",,,,,,344200000003056,Briljantlaan,101.0,,,3523CD,Utrecht,,136822.813892312,454050.608683528,5.1220668,52.0744373,,,,,,,,2021-03-17T07:30:00 tot 2021-03-17T21:00:00,Y,,Aanwijskaart,"Leesloep, lamp",Y,8,Utrecht,N,"Team Verkiezingen, verkiezingen@utrecht.nl 030-2862002, Publiekszaken/Team Verkiezingen, Postbus 16200 3500 CE Utrecht",https://www.utrecht.nl/bestuur-en-organisatie/verkiezingen,,NLODSGM0344stembureaus20210317008,b6b022bef45c436a955290ba9d9b36d0
54113,Utrecht,GM0344,Stembureau,538.0,Gymzaal Verlengde Houtrakgracht,"onderwijsfunctie, overige gebruiksfunctie",,,,,,344200000153590,Verlengde Houtrakgracht,598.0,,,3544EA,Utrecht,,132123.678064124,455499.977243305,5.053428,52.08729,,,,,,,,2021-03-17T07:30:00 tot 2021-03-17T21:00:00,Y,,Aanwijskaart,"Leesloep, lamp",Y,8,Utrecht,Y,"Team Verkiezingen, verkiezingen@utrecht.nl 030-2862002, Publiekszaken/Team Verkiezingen, Postbus 16200 3500 CE Utrecht",https://www.utrecht.nl/bestuur-en-organisatie/verkiezingen,,NLODSGM0344stembureaus20210317008,164ca491820c40e3bfd83f3327728818
54114,Utrecht,GM0344,Stembureau,110.0,Scoutcentrum Utrecht,"kantoorfunctie, onderwijsfunctie",,,,,,344200000079216,Verlengde Hoogravenseweg,150.0,A,,3525BL,Utrecht,,136492.677301446,452982.306464526,5.1173093,52.0648245,,,,,,,,2021-03-17T07:30:00 tot 2021-03-17T21:00:00,Y,,Aanwijskaart,"Leesloep, lamp",Y,8,Utrecht,N,"Team Verkiezingen, verkiezingen@utrecht.nl 030-2862002, Publiekszaken/Team Verkiezingen, Postbus 16200 3500 CE Utrecht",https://www.utrecht.nl/bestuur-en-organisatie/verkiezingen,,NLODSGM0344stembureaus20210317008,54415d93ade5498e8a70a925873a70e5
54115,Utrecht,GM0344,Stembureau,111.0,Kringloopcentrum De Arm,"woonfunctie, industriefunctie",,,,,,344200000133149,Verlengde Hoogravenseweg,63.0,,,3525BB,Utrecht,,136331.663470434,452578.734179617,5.1149833,52.0611918,,,,,,,,2021-03-17T07:30:00 tot 2021-03-17T21:00:00,Y,,Aanwijskaart,"Leesloep, lamp",Y,8,Utrecht,Y,"Team Verkiezingen, verkiezingen@utrecht.nl 030-2862002, Publiekszaken/Team Verkiezingen, Postbus 16200 3500 CE Utrecht",https://www.utrecht.nl/bestuur-en-organisatie/verkiezingen,,NLODSGM0344stembureaus20210317008,0781e5d1e7e84ff2ad706df4375081b4
54116,Utrecht,GM0344,Stembureau,541.0,Huiskamer Tableau,kantoorfunctie,,,,,,344200000119068,Glenn Millerpad,66.0,,,3543GG,Utrecht,,131867.649720287,457059.712925961,5.0495867,52.1012981,,,,,,2021-03-15T07:30:00 tot 2021-03-15T21:00:00,2021-03-16T07:30:00 tot 2021-03-16T21:00:00,2021-03-17T07:30:00 tot 2021-03-17T21:00:00,Y,,Aanwijskaart,"Leesloep, lamp",N,8,Utrecht,Y,"Team Verkiezingen, verkiezingen@utrecht.nl 030-2862002, Publiekszaken/Team Verkiezingen, Postbus 16200 3500 CE Utrecht",https://www.utrecht.nl/bestuur-en-organisatie/verkiezingen,,NLODSGM0344stembureaus20210317008,8fbf65f511374a17be0f579b5405ee5a
54117,Utrecht,GM0344,Stembureau,115.0,Gymzaal Goeree 6,"bijeenkomstfunctie, sportfunctie",,,,,,344200000160948,Goeree,6.0,,,3524ZZ,Utrecht,,137760.2137647,452586.403066706,5.1358137,52.061307,,,,,,2021-03-15T07:30:00 tot 2021-03-15T21:00:00,2021-03-16T07:30:00 tot 2021-03-16T21:00:00,2021-03-17T07:30:00 tot 2021-03-17T21:00:00,Y,,Aanwijskaart,"Leesloep, lamp",N,8,Utrecht,Y,"Team Verkiezingen, verkiezingen@utrecht.nl 030-2862002, Publiekszaken/Team Verkiezingen, Postbus 16200 3500 CE Utrecht",https://www.utrecht.nl/bestuur-en-organisatie/verkiezingen,,NLODSGM0344stembureaus20210317008,9920f08cc2bb4e998e742e0ac71a7531
54118,Utrecht,GM0344,Stembureau,116.0,Koppelsteede,"bijeenkomstfunctie, industriefunctie",,,,,,344200000145459,Koppeldijk,115.0,,,3524SK,Utrecht,,137902.827108764,452109.943616989,5.1379171,52.057029,,,,,,,,2021-03-17T07:30:00 tot 2021-03-17T21:00:00,Y,,Aanwijskaart,"Leesloep, lamp",Y,8,Utrecht,Y,"Team Verkiezingen, verkiezingen@utrecht.nl 030-2862002, Publiekszaken/Team Verkiezingen, Postbus 16200 3500 CE Utrecht",https://www.utrecht.nl/bestuur-en-organisatie/verkiezingen,,NLODSGM0344stembureaus20210317008,8a97ecd354274e099824da39540b1940
54119,Utrecht,GM0344,Stembureau,119.0,Activiteitencentrum De Musketon,"bijeenkomstfunctie, kantoorfunctie",,,,,,344200000130947,Hondsrug,19.0,,,3524BP,Utrecht,,137795.022217233,452905.508611678,5.1363052,52.0641762,,,,,,2021-03-15T07:30:00 tot 2021-03-15T21:00:00,2021-03-16T07:30:00 tot 2021-03-16T21:00:00,2021-03-17T07:30:00 tot 2021-03-17T21:00:00,Y,,Aanwijskaart,"Leesloep, lamp",Y,8,Utrecht,Y,"Team Verkiezingen, verkiezingen@utrecht.nl 030-2862002, Publiekszaken/Team Verkiezingen, Postbus 16200 3500 CE Utrecht",https://www.utrecht.nl/bestuur-en-organisatie/verkiezingen,,NLODSGM0344stembureaus20210317008,cada92d584b7499697042bd1f555ac30
54120,Utrecht,GM0344,Stembureau,565.0,Buurtcentrum De Dreef,"industriefunctie, kantoorfunctie",,,,,,344200000154404,Schooneggendreef,27.0,C,,3562GG,Utrecht,,136604.284845073,459248.87981621,5.1185989,52.1211518,,,,,,,,2021-03-17T07:30:00 tot 2021-03-17T21:00:00,Y,,Aanwijskaart,"Leesloep, lamp",Y,8,Utrecht,Y,"Team Verkiezingen, verkiezingen@utrecht.nl 030-2862002, Publiekszaken/Team Verkiezingen, Postbus 16200 3500 CE Utrecht",https://www.utrecht.nl/bestuur-en-organisatie/verkiezingen,,NLODSGM0344stembureaus20210317008,01b02e74d12249549ea735f36d1c35c6
54121,Utrecht,GM0344,Stembureau,126.0,Hart van Noord,"woonfunctie, onderwijsfunctie",,,,,,344200000160935,Trumanlaan,60.0,,,3527BR,Utrecht,ingang Geallieerdenlaan,134727.050063573,454247.485667879,5.0914862,52.0761341,,,,,,,,2021-03-17T07:30:00 tot 2021-03-17T21:00:00,Y,,Aanwijskaart,"Leesloep, lamp",Y,8,Utrecht,Y,"Team Verkiezingen, verkiezingen@utrecht.nl 030-2862002, Publiekszaken/Team Verkiezingen, Postbus 16200 3500 CE Utrecht",https://www.utrecht.nl/bestuur-en-organisatie/verkiezingen,,NLODSGM0344stembureaus20210317008,21eca988191549e693fafee24bfe68d5
54122,Utrecht,GM0344,Stembureau,560.0,De Jager,bijeenkomstfunctie,,,,,,344200000180425,Teun de Jagerdreef,1.0,A,,3561JK,Utrecht,,136603.128970171,457949.226717394,5.1186522,52.1094706,,,,,,2021-03-15T07:30:00 tot 2021-03-15T21:00:00,2021-03-16T07:30:00 tot 2021-03-16T21:00:00,2021-03-17T07:30:00 tot 2021-03-17T21:00:00,Y,,Aanwijskaart,"Leesloep, lamp",N,8,Utrecht,Y,"Team Verkiezingen, verkiezingen@utrecht.nl 030-2862002, Publiekszaken/Team Verkiezingen, Postbus 16200 3500 CE Utrecht",https://www.utrecht.nl/bestuur-en-organisatie/verkiezingen,,NLODSGM0344stembureaus20210317008,9b05bb0c72b847b8874256005856dcc7
54123,Utrecht,GM0344,Stembureau,574.0,BuurThuis Kanaleneiland-Zuid,bijeenkomstfunctie,,,,,,344200000025518,Livingstonelaan,1350.0,,,3526JX,Utrecht,,135588.218487266,453042.94764962,5.1041162,52.0653386,,,,,,2021-03-15T07:30:00 tot 2021-03-15T21:00:00,2021-03-16T07:30:00 tot 2021-03-16T21:00:00,2021-03-17T07:30:00 tot 2021-03-17T21:00:00,Y,,Aanwijskaart,"Leesloep, lamp",Y,8,Utrecht,Y,"Team Verkiezingen, verkiezingen@utrecht.nl 030-2862002, Publiekszaken/Team Verkiezingen, Postbus 16200 3500 CE Utrecht",https://www.utrecht.nl/bestuur-en-organisatie/verkiezingen,,NLODSGM0344stembureaus20210317008,eaec6703a95a4b0397004c4bbc9f1b48
54124,Utrecht,GM0344,Stembureau,582.0,Hart van Hoograven,bijeenkomstfunctie,,,,,,344200000161985,'t Goylaan,77.0,,,3525AA,Utrecht,,136723.951899572,453091.888952879,5.1206761,52.0658171,,,,,,,,2021-03-17T07:30:00 tot 2021-03-17T21:00:00,Y,,Aanwijskaart,"Leesloep, lamp",Y,8,Utrecht,Y,"Team Verkiezingen, verkiezingen@utrecht.nl 030-2862002, Publiekszaken/Team Verkiezingen, Postbus 16200 3500 CE Utrecht",https://www.utrecht.nl/bestuur-en-organisatie/verkiezingen,,NLODSGM0344stembureaus20210317008,cc987808e7c3498b8d4979944594dfaa
54125,Utrecht,GM0344,Stembureau,137.0,Gertrudisschool,bijeenkomstfunctie,,,,,,344200000051622,Amaliadwarsstraat,2.0,A,,3522AR,Utrecht,,136504.893560918,454207.365088041,5.1174211,52.0758357,,,,,,,,2021-03-17T07:30:00 tot 2021-03-17T21:00:00,N,,Aanwijskaart,"Leesloep, lamp",,8,Utrecht,Y,"Team Verkiezingen, verkiezingen@utrecht.nl 030-2862002, Publiekszaken/Team Verkiezingen, Postbus 16200 3500 CE Utrecht",https://www.utrecht.nl/bestuur-en-organisatie/verkiezingen,,NLODSGM0344stembureaus20210317008,c25c6d83ca104959b6e9db90af577bf9
54126,Utrecht,GM0344,Stembureau,584.0,Sporthal Cultuurcampus,"bijeenkomstfunctie, sportfunctie",,,,,,344200000117405,Voor de Burchten,2.0,,,3452MA,Vleuten,,129231.93134907,456352.349256249,5.0111726,52.094824,,,,,,,,2021-03-17T07:30:00 tot 2021-03-17T21:00:00,Y,,Aanwijskaart,"Leesloep, lamp",Y,8,Utrecht,Y,"Team Verkiezingen, verkiezingen@utrecht.nl 030-2862002, Publiekszaken/Team Verkiezingen, Postbus 16200 3500 CE Utrecht",https://www.utrecht.nl/bestuur-en-organisatie/verkiezingen,,NLODSGM0344stembureaus20210317008,7e6a064a0784428ab869959c1255b657
54127,Utrecht,GM0344,Stembureau,140.0,OBS De Klimroos,onderwijsfunctie,,,,,,344200000193356,Eerste Oosterparklaan,88.0,,,3544AK,Utrecht,,132196.39735388,455628.461129333,5.0544804,52.0884478,,,,,,,,2021-03-17T07:30:00 tot 2021-03-17T21:00:00,Y,,Aanwijskaart,"Leesloep, lamp",Y,8,Utrecht,Y,"Team Verkiezingen, verkiezingen@utrecht.nl 030-2862002, Publiekszaken/Team Verkiezingen, Postbus 16200 3500 CE Utrecht",https://www.utrecht.nl/bestuur-en-organisatie/verkiezingen,,NLODSGM0344stembureaus20210317008,245ac3a4ff1146408e673bca5c0cf6c1
54128,Utrecht,GM0344,Stembureau,141.0,Projecthuis De Kersentuin,industriefunctie,,,,,,344200000102011,Atalantahof,11.0,,,3544VD,Utrecht,,131848.873539803,455665.757874979,5.0494073,52.0887686,,,,,,,,2021-03-17T07:30:00 tot 2021-03-17T21:00:00,N,,Aanwijskaart,"Leesloep, lamp",,8,Utrecht,N,"Team Verkiezingen, verkiezingen@utrecht.nl 030-2862002, Publiekszaken/Team Verkiezingen, Postbus 16200 3500 CE Utrecht",https://www.utrecht.nl/bestuur-en-organisatie/verkiezingen,,NLODSGM0344stembureaus20210317008,1c1041196d2341799356bac09ad74c8c
54129,Utrecht,GM0344,Stembureau,142.0,Boerderij De Hoef,bijeenkomstfunctie,,,,,,344200000061836,Hogeweide,6.0,,,3541BC,Utrecht,,133370.950418111,455889.008843037,5.0716013,52.0908367,,,,,,,,2021-03-17T07:30:00 tot 2021-03-17T21:00:00,Y,,Aanwijskaart,"Leesloep, lamp",Y,8,Utrecht,Y,"Team Verkiezingen, verkiezingen@utrecht.nl 030-2862002, Publiekszaken/Team Verkiezingen, Postbus 16200 3500 CE Utrecht",https://www.utrecht.nl/bestuur-en-organisatie/verkiezingen,,NLODSGM0344stembureaus20210317008,c7684b9e4f0e4bba863a0e11aecb7cf8
54130,Utrecht,GM0344,Stembureau,601.0,Gymzaal Pieterskerkhof,"onderwijsfunctie, sportfunctie",,,,,,344200000072483,Pieterskerkhof,10.0,,,3512JR,Utrecht,,137046.687859276,455912.421994941,5.1252343,52.0911785,,,,,,,,2021-03-17T07:30:00 tot 2021-03-17T21:00:00,Y,,Aanwijskaart,"Leesloep, lamp",N,8,Utrecht,Y,"Team Verkiezingen, verkiezingen@utrecht.nl 030-2862002, Publiekszaken/Team Verkiezingen, Postbus 16200 3500 CE Utrecht",https://www.utrecht.nl/bestuur-en-organisatie/verkiezingen,,NLODSGM0344stembureaus20210317008,fbda449fded04372a54f3511a4b21e86
54131,Utrecht,GM0344,Stembureau,144.0,Wijkservicecentrum Vleuten-De Meern,"bijeenkomstfunctie, kantoorfunctie",,,,,,344200000149573,Dorpsplein,1.0,,,3451BK,Vleuten,,129239.346931463,457734.053789044,5.0111764,52.1072429,,,,,,,,2021-03-17T07:30:00 tot 2021-03-17T21:00:00,Y,,Aanwijskaart,"Leesloep, lamp",Y,8,Utrecht,Y,"Team Verkiezingen, verkiezingen@utrecht.nl 030-2862002, Publiekszaken/Team Verkiezingen, Postbus 16200 3500 CE Utrecht",https://www.utrecht.nl/bestuur-en-organisatie/verkiezingen,,NLODSGM0344stembureaus20210317008,e340bde8548c4399abee180aa367183e
54132,Utrecht,GM0344,Stembureau,145.0,St. Bonifatiusschool,onderwijsfunctie,,,,,,344200000099603,Brinkstraat,4.0,,,3455SK,Haarzuilens,,128370.175951217,459185.099338735,4.998376,52.1202435,,,,,,,,2021-03-17T07:30:00 tot 2021-03-17T21:00:00,Y,,Aanwijskaart,"Leesloep, lamp",Y,8,Utrecht,Y,"Team Verkiezingen, verkiezingen@utrecht.nl 030-2862002, Publiekszaken/Team Verkiezingen, Postbus 16200 3500 CE Utrecht",https://www.utrecht.nl/bestuur-en-organisatie/verkiezingen,,NLODSGM0344stembureaus20210317008,0f767c7483ad4dbf9ef2ba8f5a98b1d0
54133,Utrecht,GM0344,Stembureau,146.0,Kees Valkensteinschool,onderwijsfunctie,,,,,,344200000161891,Kortland,22.0,,,3451VD,Vleuten,,129843.114763675,457827.449519592,5.0199825,52.1081101,,,,,,,,2021-03-17T07:30:00 tot 2021-03-17T21:00:00,Y,,Aanwijskaart,"Leesloep, lamp",Y,8,Utrecht,Y,"Team Verkiezingen, verkiezingen@utrecht.nl 030-2862002, Publiekszaken/Team Verkiezingen, Postbus 16200 3500 CE Utrecht",https://www.utrecht.nl/bestuur-en-organisatie/verkiezingen,,NLODSGM0344stembureaus20210317008,42d98cb90c5848e6936e296c022cdb78
54134,Utrecht,GM0344,Stembureau,147.0,Fletiohal,"kantoorfunctie, sportfunctie",,,,,,344200000160656,Albert Schweitzerlaan,10.0,A,,3451EC,Vleuten,,129400.884440457,457651.609631917,5.0135405,52.1065094,,,,,,,,2021-03-17T07:30:00 tot 2021-03-17T21:00:00,Y,,Aanwijskaart,"Leesloep, lamp",Y,8,Utrecht,Y,"Team Verkiezingen, verkiezingen@utrecht.nl 030-2862002, Publiekszaken/Team Verkiezingen, Postbus 16200 3500 CE Utrecht",https://www.utrecht.nl/bestuur-en-organisatie/verkiezingen,,NLODSGM0344stembureaus20210317008,433aae7b24c149b69bdd8e869eee643d
54135,Utrecht,GM0344,Stembureau,148.0,Waterwin,industriefunctie,,,,,,344200000103030,Musicallaan,100.0,,,3543BT,Utrecht,,131419.737204713,457461.988090278,5.0430217,52.1048948,,,,,,,,2021-03-17T07:30:00 tot 2021-03-17T21:00:00,Y,,Aanwijskaart,"Leesloep, lamp",Y,8,Utrecht,Y,"Team Verkiezingen, verkiezingen@utrecht.nl 030-2862002, Publiekszaken/Team Verkiezingen, Postbus 16200 3500 CE Utrecht",https://www.utrecht.nl/bestuur-en-organisatie/verkiezingen,,NLODSGM0344stembureaus20210317008,020e28e3bb374a2fb3788fdb4ab7a115
54136,Utrecht,GM0344,Stembureau,149.0,Kerkestein,overige gebruiksfunctie,,,,,,344200000151683,Pastoor Ohllaan,34.0,A,,3451CC,Vleuten,achter de kerk,129469.077664223,457404.336871391,5.0145544,52.1042901,,,,,,,,2021-03-17T07:30:00 tot 2021-03-17T21:00:00,Y,,Aanwijskaart,"Leesloep, lamp",Y,8,Utrecht,N,"Team Verkiezingen, verkiezingen@utrecht.nl 030-2862002, Publiekszaken/Team Verkiezingen, Postbus 16200 3500 CE Utrecht",https://www.utrecht.nl/bestuur-en-organisatie/verkiezingen,,NLODSGM0344stembureaus20210317008,a0fab9b943994c6b9e3de58e4cfb2db4
54137,Utrecht,GM0344,Stembureau,151.0,Vereenigingsgebouw De Zandweg,"bijeenkomstfunctie, overige gebruiksfunctie",,,,,,344200000096952,Zandweg,148.0,,,3454HA,De Meern,,130815.502778917,455110.607189381,5.0343691,52.0837348,,,,,,,,2021-03-17T07:30:00 tot 2021-03-17T21:00:00,Y,,Aanwijskaart,"Leesloep, lamp",Y,8,Utrecht,Y,"Team Verkiezingen, verkiezingen@utrecht.nl 030-2862002, Publiekszaken/Team Verkiezingen, Postbus 16200 3500 CE Utrecht",https://www.utrecht.nl/bestuur-en-organisatie/verkiezingen,,NLODSGM0344stembureaus20210317008,527d6dc57de94ff881bb849efb80a3f2
54138,Utrecht,GM0344,Stembureau,154.0,Dienstencentrum De Roef,bijeenkomstfunctie,,,,,,344200000180645,Touwslagerslaan,3.0,,,3454GV,De Meern,,130598.349432096,454940.692515426,5.0312132,52.0821981,,,,,,,,2021-03-17T07:30:00 tot 2021-03-17T21:00:00,Y,,Aanwijskaart,"Leesloep, lamp",Y,8,Utrecht,Y,"Team Verkiezingen, verkiezingen@utrecht.nl 030-2862002, Publiekszaken/Team Verkiezingen, Postbus 16200 3500 CE Utrecht",https://www.utrecht.nl/bestuur-en-organisatie/verkiezingen,,NLODSGM0344stembureaus20210317008,9f325138051943308453df7aad57e292
54139,Utrecht,GM0344,Stembureau,155.0,Activiteitencentrum De Pijler,industriefunctie,,,,,,344200000106005,Bovenpolder,80.0,,,3453NP,De Meern,,129340.479069851,455275.537635236,5.0128376,52.0851508,,,,,,,,2021-03-17T07:30:00 tot 2021-03-17T21:00:00,Y,,Aanwijskaart,,Y,8,Utrecht,Y,"Team Verkiezingen, verkiezingen@utrecht.nl 030-2862002, Publiekszaken/Team Verkiezingen, Postbus 16200 3500 CE Utrecht",https://www.utrecht.nl/bestuur-en-organisatie/verkiezingen,,NLODSGM0344stembureaus20210317008,42de9ab6e2e3475db7218099ae56c098
54140,Utrecht,GM0344,Stembureau,615.0,Aula Begraafplaats Kovelswade,woonfunctie,,,,,,344200000144262,Koningsweg,47.0,,,3582GB,Utrecht,,137741.01472636,454261.383471145,5.1354491,52.0763611,,,,,,,,2021-03-17T07:30:00 tot 2021-03-17T21:00:00,Y,,Aanwijskaart,"Leesloep, lamp",Y,8,Utrecht,Y,"Team Verkiezingen, verkiezingen@utrecht.nl 030-2862002, Publiekszaken/Team Verkiezingen, Postbus 16200 3500 CE Utrecht",https://www.utrecht.nl/bestuur-en-organisatie/verkiezingen,,NLODSGM0344stembureaus20210317008,fe8d993ef191420ea241cc013dc867e1
54141,Utrecht,GM0344,Stembureau,158.0,Gymzaal Ten Veldestraat,sportfunctie,,,,,,344200000090876,Ten Veldestraat,94.0,,,3454EN,De Meern,,130690.739284554,454497.48962263,5.0325926,52.0782187,,,,,,,,2021-03-17T07:30:00 tot 2021-03-17T21:00:00,N,,Aanwijskaart,"Leesloep, lamp",,8,Utrecht,Y,"Team Verkiezingen, verkiezingen@utrecht.nl 030-2862002, Publiekszaken/Team Verkiezingen, Postbus 16200 3500 CE Utrecht",https://www.utrecht.nl/bestuur-en-organisatie/verkiezingen,,NLODSGM0344stembureaus20210317008,fb9863f9f58f4041ba298e64b66fa3a9
54142,Utrecht,GM0344,Stembureau,159.0,Paviljoen Wieler- en Skeelercentrum,"woonfunctie, industriefunctie",,,,,,344200000097271,Nedereindseweg,501.0,,,3546PM,Utrecht,ingang naast 503,132790.176771843,450297.972655392,5.0634906,52.0405618,,,,,,,,2021-03-17T07:30:00 tot 2021-03-17T21:00:00,Y,,Aanwijskaart,"Leesloep, lamp",Y,8,Utrecht,Y,"Team Verkiezingen, verkiezingen@utrecht.nl 030-2862002, Publiekszaken/Team Verkiezingen, Postbus 16200 3500 CE Utrecht",https://www.utrecht.nl/bestuur-en-organisatie/verkiezingen,,NLODSGM0344stembureaus20210317008,b3485ea6e56942ac9126519f10f4a8de
54143,Utrecht,GM0344,Stembureau,616.0,Aula Begraafplaats Tolsteeg,bijeenkomstfunctie,,,,,,344200000167790,Maansteenweg,1.0,,,3523SR,Utrecht,,137507.481907585,453840.256740309,5.1320642,52.0725687,,,,,,,,2021-03-17T07:30:00 tot 2021-03-17T21:00:00,Y,,Aanwijskaart,"Leesloep, lamp",Y,8,Utrecht,Y,"Team Verkiezingen, verkiezingen@utrecht.nl 030-2862002, Publiekszaken/Team Verkiezingen, Postbus 16200 3500 CE Utrecht",https://www.utrecht.nl/bestuur-en-organisatie/verkiezingen,,NLODSGM0344stembureaus20210317008,bbd9607b674941e8898f5ec22bb92ea7
54144,Utrecht,GM0344,Stembureau,161.0,Gymzaal De Twaalfruiter,onderwijsfunctie,,,,,,344200000159099,Kweektuinlaan,11.0,,,3452SR,Vleuten,,129008.695326189,455861.713590631,5.0079524,52.0904038,,,,,,2021-03-15T07:30:00 tot 2021-03-15T21:00:00,2021-03-16T07:30:00 tot 2021-03-16T21:00:00,2021-03-17T07:30:00 tot 2021-03-17T21:00:00,Y,,Aanwijskaart,"Leesloep, lamp",Y,8,Utrecht,Y,"Team Verkiezingen, verkiezingen@utrecht.nl 030-2862002, Publiekszaken/Team Verkiezingen, Postbus 16200 3500 CE Utrecht",https://www.utrecht.nl/bestuur-en-organisatie/verkiezingen,,NLODSGM0344stembureaus20210317008,00d10c9f28a0447d8019feef6bef962f
54145,Utrecht,GM0344,Stembureau,162.0,KBS De JazzSingel,"bijeenkomstfunctie, kantoorfunctie, onderwijsfunctie",,,,,,344200000170332,Jazzsingel,900.0,,,3543GB,Utrecht,,132459.789617,457080.048386755,5.0582275,52.1015053,,,,,,,,2021-03-17T07:30:00 tot 2021-03-17T21:00:00,Y,,Aanwijskaart,"Leesloep, lamp",Y,8,Utrecht,Y,"Team Verkiezingen, verkiezingen@utrecht.nl 030-2862002, Publiekszaken/Team Verkiezingen, Postbus 16200 3500 CE Utrecht",https://www.utrecht.nl/bestuur-en-organisatie/verkiezingen,,NLODSGM0344stembureaus20210317008,7799fc3304a04db8927055146d692891
54146,Utrecht,GM0344,Stembureau,163.0,Sportzaal Broos Gerssen,"bijeenkomstfunctie, sportfunctie",,,,,,344200000105884,Keerderberg,21.0,,,3453RD,De Meern,,129668.728139645,454955.939358781,5.0176503,52.0822934,,,,,,,,2021-03-17T07:30:00 tot 2021-03-17T21:00:00,Y,,Aanwijskaart,"Leesloep, lamp",N,8,Utrecht,Y,"Team Verkiezingen, verkiezingen@utrecht.nl 030-2862002, Publiekszaken/Team Verkiezingen, Postbus 16200 3500 CE Utrecht",https://www.utrecht.nl/bestuur-en-organisatie/verkiezingen,,NLODSGM0344stembureaus20210317008,a55e31d35ed64faa9877688536ffeea7
54147,Utrecht,GM0344,Stembureau,164.0,Kindercluster De Weide Wereld,onderwijsfunctie,,,,,,344200000113144,Teunisbloemlaan,50.0,,,3452CB,Vleuten,,128666.867301086,456517.504154747,5.0029141,52.0962818,,,,,,,,2021-03-17T07:30:00 tot 2021-03-17T21:00:00,Y,,Aanwijskaart,"Leesloep, lamp",Y,8,Utrecht,Y,"Team Verkiezingen, verkiezingen@utrecht.nl 030-2862002, Publiekszaken/Team Verkiezingen, Postbus 16200 3500 CE Utrecht",https://www.utrecht.nl/bestuur-en-organisatie/verkiezingen,,NLODSGM0344stembureaus20210317008,0b8c81c556074ef2950d5d9d347c6359
54148,Utrecht,GM0344,Stembureau,167.0,'t Zand,bijeenkomstfunctie,,,,,,344200000110779,Pauwoogvlinder,18.0,,,3544DB,Utrecht,,131714.624331714,456382.224853508,5.0473996,52.0952025,,,,,,,,2021-03-17T07:30:00 tot 2021-03-17T21:00:00,Y,,Aanwijskaart,"Leesloep, lamp",Y,8,Utrecht,Y,"Team Verkiezingen, verkiezingen@utrecht.nl 030-2862002, Publiekszaken/Team Verkiezingen, Postbus 16200 3500 CE Utrecht",https://www.utrecht.nl/bestuur-en-organisatie/verkiezingen,,NLODSGM0344stembureaus20210317008,9b109f5fc855437ca91c7c5574399371
54149,Utrecht,GM0344,Stembureau,169.0,Cultuurcampus Vleuterweide,bijeenkomstfunctie,,,,,,344200000117445,Burchtpoort,16.0,,,3452MD,Vleuten,,129275.659800592,456259.709477728,5.0118177,52.0939934,,,,,,,,2021-03-17T07:30:00 tot 2021-03-17T21:00:00,N,,Aanwijskaart,"Leesloep, lamp",,8,Utrecht,Y,"Team Verkiezingen, verkiezingen@utrecht.nl 030-2862002, Publiekszaken/Team Verkiezingen, Postbus 16200 3500 CE Utrecht",https://www.utrecht.nl/bestuur-en-organisatie/verkiezingen,,NLODSGM0344stembureaus20210317008,fce42a6216644cb2a6e91c90e70a2f58
54150,Utrecht,GM0344,Stembureau,170.0,Brandweer Vleuterweide,overige gebruiksfunctie,,,,,,344200000118656,Gouden Koetslaan,97.0,,,3451WE,Vleuten,,129287.440863704,456871.206970926,5.0119435,52.09949,,,,,,,,2021-03-17T07:30:00 tot 2021-03-17T21:00:00,Y,,Aanwijskaart,"Leesloep, lamp",N,8,Utrecht,N,"Team Verkiezingen, verkiezingen@utrecht.nl 030-2862002, Publiekszaken/Team Verkiezingen, Postbus 16200 3500 CE Utrecht",https://www.utrecht.nl/bestuur-en-organisatie/verkiezingen,,NLODSGM0344stembureaus20210317008,e30e554bdea0404180d8691985364c7c
54151,Utrecht,GM0344,Stembureau,585.0,Gymzaal 't Zand,bijeenkomstfunctie,,,,,,344200000110779,Pauwoogvlinder,18.0,,,3544DB,Utrecht,,131725.577958753,456393.121677054,5.0475587,52.0953009,,,,,,,,2021-03-17T07:30:00 tot 2021-03-17T21:00:00,Y,,Aanwijskaart,"Leesloep, lamp",Y,8,Utrecht,Y,"Team Verkiezingen, verkiezingen@utrecht.nl 030-2862002, Publiekszaken/Team Verkiezingen, Postbus 16200 3500 CE Utrecht",https://www.utrecht.nl/bestuur-en-organisatie/verkiezingen,,NLODSGM0344stembureaus20210317008,346438fd8abd4c2fa174716fd9a490b4
54152,Utrecht,GM0344,Stembureau,604.0,Sporthal De Weide Wereld,"bijeenkomstfunctie, overige gebruiksfunctie",,,,,,344200000113143,Teunisbloemlaan,48.0,,,3452CB,Vleuten,,128621.145033161,456502.92632965,5.002248,52.0961486,,,,,,,,2021-03-17T07:30:00 tot 2021-03-17T21:00:00,Y,,Aanwijskaart,"Leesloep, lamp",Y,8,Utrecht,Y,"Team Verkiezingen, verkiezingen@utrecht.nl 030-2862002, Publiekszaken/Team Verkiezingen, Postbus 16200 3500 CE Utrecht",https://www.utrecht.nl/bestuur-en-organisatie/verkiezingen,,NLODSGM0344stembureaus20210317008,8529f1a534a74c98bf7533071714a994
54153,Utrecht,GM0344,Stembureau,617.0,Aula Begraafplaats Daelwijck,overige gebruiksfunctie,,,,,,344200000047789,Floridadreef,11.0,,,3565AM,Utrecht,,134876.904511681,460073.048406328,5.0933282,52.1284992,,,,,,,,2021-03-17T07:30:00 tot 2021-03-17T21:00:00,Y,,Aanwijskaart,"Leesloep, lamp",Y,8,Utrecht,Y,"Team Verkiezingen, verkiezingen@utrecht.nl 030-2862002, Publiekszaken/Team Verkiezingen, Postbus 16200 3500 CE Utrecht",https://www.utrecht.nl/bestuur-en-organisatie/verkiezingen,,NLODSGM0344stembureaus20210317008,a27dfcf02f04423da76d8427508c00c8
54154,Utrecht,GM0344,Stembureau,178.0,Gymzaal Franz Schubertstraat,sportfunctie,,,,,,344200000159399,Franz Schubertstraat,20.0,,,3533GW,Utrecht,,134457.261647399,455297.563928862,5.0874877,52.0855622,,,,,,,,2021-03-17T07:30:00 tot 2021-03-17T21:00:00,N,,Aanwijskaart,"Leesloep, lamp",,8,Utrecht,Y,"Team Verkiezingen, verkiezingen@utrecht.nl 030-2862002, Publiekszaken/Team Verkiezingen, Postbus 16200 3500 CE Utrecht",https://www.utrecht.nl/bestuur-en-organisatie/verkiezingen,,NLODSGM0344stembureaus20210317008,8a064dff99d042d6b14190de38cd0c45
54155,Utrecht,GM0344,Stembureau,179.0,Sportcentrum De Paperclip,"bijeenkomstfunctie, sportfunctie",,,,,,344200000152800,Parkzichtlaan,203.0,,,3451GX,Vleuten,,130929.37193253,456152.780582151,5.0359568,52.0931067,,,,,,,,2021-03-17T07:30:00 tot 2021-03-17T21:00:00,Y,,Aanwijskaart,"Leesloep, lamp",Y,8,Utrecht,Y,"Team Verkiezingen, verkiezingen@utrecht.nl 030-2862002, Publiekszaken/Team Verkiezingen, Postbus 16200 3500 CE Utrecht",https://www.utrecht.nl/bestuur-en-organisatie/verkiezingen,,NLODSGM0344stembureaus20210317008,b327bfb567fb481ebf985a80dd42969f
54156,Utrecht,GM0344,Stembureau,605.0,Sporthal Europahal,"bijeenkomstfunctie, kantoorfunctie",,,,,,344200000117139,Europaweg,50.0,A,,3451HG,Vleuten,,129982.583293805,455558.487704894,5.0221848,52.0877233,,,,,,,,2021-03-17T07:30:00 tot 2021-03-17T21:00:00,Y,,Aanwijskaart,"Leesloep, lamp",Y,8,Utrecht,Y,"Team Verkiezingen, verkiezingen@utrecht.nl 030-2862002, Publiekszaken/Team Verkiezingen, Postbus 16200 3500 CE Utrecht",https://www.utrecht.nl/bestuur-en-organisatie/verkiezingen,,NLODSGM0344stembureaus20210317008,beeaef2151f44f4d9d0e43f8aba0fc2c
54157,Utrecht,GM0344,Stembureau,183.0,Centraal Station,winkelfunctie,,,,,,344200000176169,Stationshal,1.0,,,3511CE,Utrecht,1e verdieping,136065.984016231,455720.271278419,5.110935,52.0894188,,,,,,,,2021-03-17T06:45:00 tot 2021-03-17T21:00:00,Y,,Aanwijskaart,"Leesloep, lamp",Y,8,Utrecht,N,"Team Verkiezingen, verkiezingen@utrecht.nl 030-2862002, Publiekszaken/Team Verkiezingen, Postbus 16200 3500 CE Utrecht",https://www.utrecht.nl/bestuur-en-organisatie/verkiezingen,,NLODSGM0344stembureaus20210317008,6291f64d900642929274f28dc89bdf02
54158,Utrecht,GM0344,Stembureau,184.0,Stadskantoor,"industriefunctie, kantoorfunctie",,,,,,344200000166576,Stadsplateau,1.0,,,3521AZ,Utrecht,,135859.733781976,455754.382515023,5.1079237,52.0897183,,,,,,2021-03-17T07:30:00 tot 2021-03-17T21:00:00,2021-03-17T07:30:00 tot 2021-03-17T21:00:00,2021-03-17T07:30:00 tot 2021-03-17T21:00:00,Y,,"Gebarentolk, aanwijskaart","Stemmal, leesloep, lamp",Y,8,Utrecht,Y,"Team Verkiezingen, verkiezingen@utrecht.nl 030-2862002, Publiekszaken/Team Verkiezingen, Postbus 16200 3500 CE Utrecht",https://www.utrecht.nl/bestuur-en-organisatie/verkiezingen,,NLODSGM0344stembureaus20210317008,f0adfce199a04b2daf0f90a877b2ea82
54159,Utrecht,GM0344,Stembureau,627.0,Buurcentrum Hoge Weide,bijeenkomstfunctie,,,,,,344200000193466,Laurierweg,104.0,,,3541RB,Utrecht,,132933.223398898,456053.871487701,5.0652036,52.0923012,,,,,,,,2021-03-17T07:30:00 tot 2021-03-17T21:00:00,Y,,Aanwijskaart,"Leesloep, lamp",Y,8,Utrecht,Y,"Team Verkiezingen, verkiezingen@utrecht.nl 030-2862002, Publiekszaken/Team Verkiezingen, Postbus 16200 3500 CE Utrecht",https://www.utrecht.nl/bestuur-en-organisatie/verkiezingen,,NLODSGM0344stembureaus20210317008,79291d57b53d4dc1ab60e3b56d323481
54160,Utrecht,GM0344,Stembureau,611.0,Bar Beton,winkelfunctie,,,,,,344200000176190,Stationshal,9.0,,,3511CE,Utrecht,,136065.984016231,455720.271278419,5.110935,52.0894188,,,,,,2021-03-15T07:30:00 tot 2021-03-15T21:00:00,2021-03-16T07:30:00 tot 2021-03-16T21:00:00,2021-03-17T07:30:00 tot 2021-03-17T21:00:00,Y,,Aanwijskaart,"Leesloep, lamp",N,8,Utrecht,N,"Team Verkiezingen, verkiezingen@utrecht.nl 030-2862002, Publiekszaken/Team Verkiezingen, Postbus 16200 3500 CE Utrecht",https://www.utrecht.nl/bestuur-en-organisatie/verkiezingen,,NLODSGM0344stembureaus20210317008,b5dc652d728c4258a269e632c64cd080
54161,Utrecht,GM0344,Stembureau,501.0,OBS Haarzicht,onderwijsfunctie,,,,,,344200000193567,Haarzichtsingel,15.0,,,3451MB,Vleuten,,129102.298894669,458384.766131326,5.0091265,52.113085,,,,,,,,2021-03-17T07:30:00 tot 2021-03-17T21:00:00,Y,,Aanwijskaart,"Leesloep, lamp",N,8,Utrecht,Y,"Team Verkiezingen, verkiezingen@utrecht.nl 030-2862002, Publiekszaken/Team Verkiezingen, Postbus 16200 3500 CE Utrecht",https://www.utrecht.nl/bestuur-en-organisatie/verkiezingen,,NLODSGM0344stembureaus20210317008,3e4757b1af2f4554bec7810378120975
54162,Utrecht,GM0344,Stembureau,193.0,Antoniuskerk,bijeenkomstfunctie,,,,,,344200000160334,Kanaalstraat,200.0,,,3531CR,Utrecht,,135044.475981465,455876.543726622,5.0960211,52.0907875,,,,,,,,2021-03-17T07:30:00 tot 2021-03-17T21:00:00,Y,,Aanwijskaart,"Leesloep, lamp",N,8,Utrecht,Y,"Team Verkiezingen, verkiezingen@utrecht.nl 030-2862002, Publiekszaken/Team Verkiezingen, Postbus 16200 3500 CE Utrecht",https://www.utrecht.nl/bestuur-en-organisatie/verkiezingen,,NLODSGM0344stembureaus20210317008,376e1ddacbef4f17876f44ab557eeed3
54163,Utrecht,GM0344,Stembureau,651.0,Kledingbank,onderwijsfunctie,,,,,,344200000055153,Amsterdamsestraatweg,239.0,A,,3551CC,Utrecht,,135377.161908609,456944.488939442,5.100814,52.100398,,,,,,2021-03-15T07:30:00 tot 2021-03-15T21:00:00,2021-03-16T07:30:00 tot 2021-03-16T21:00:00,2021-03-17T07:30:00 tot 2021-03-17T21:00:00,Y,,Aanwijskaart,"Leesloep, lamp",N,8,Utrecht,Y,"Team Verkiezingen, verkiezingen@utrecht.nl 030-2862002, Publiekszaken/Team Verkiezingen, Postbus 16200 3500 CE Utrecht",https://www.utrecht.nl/bestuur-en-organisatie/verkiezingen,,NLODSGM0344stembureaus20210317008,a1702d3c42394bf184e8e0114c829600
54164,Utrecht,GM0344,Stembureau,614.0,De Passie,onderwijsfunctie,,,,,,344200000033797,Zwarte Woud,211.0,,,3524SG,Utrecht,,138156.75250397,452719.325774096,5.1415894,52.0625139,,,,,,,,2021-03-17T07:30:00 tot 2021-03-17T21:00:00,Y,,Aanwijskaart,"Leesloep, lamp",Y,8,Utrecht,N,"Team Verkiezingen, verkiezingen@utrecht.nl 030-2862002, Publiekszaken/Team Verkiezingen, Postbus 16200 3500 CE Utrecht",https://www.utrecht.nl/bestuur-en-organisatie/verkiezingen,,NLODSGM0344stembureaus20210317008,204ec2e558204ad98a92f8d215b54aea
54165,Utrecht,GM0344,Stembureau,194.0,De Schakel,bijeenkomstfunctie,,,,,,344200000116167,Schoolstraat,11.0,,,3451AA,Vleuten,,129346.353843418,457712.038457786,5.01274,52.10705,,,,,,,,2021-03-17T07:30:00 tot 2021-03-17T21:00:00,Y,,Aanwijskaart,"Leesloep, lamp",Y,8,Utrecht,Y,"Team Verkiezingen, verkiezingen@utrecht.nl 030-2862002, Publiekszaken/Team Verkiezingen, Postbus 16200 3500 CE Utrecht",https://www.utrecht.nl/bestuur-en-organisatie/verkiezingen,,NLODSGM0344stembureaus20210317008,c60d00f49b6042fba8c100f83b5e2121
54166,Utrecht,GM0344,Stembureau,610.0,Pathé Utrecht Leidsche Rijn,bijeenkomstfunctie,,,,,,344200000170694,Berlijnplein,100.0,,,3541CM,Utrecht,,133247.347136571,456543.726518963,5.069756,52.0967164,,,,,,2021-03-15T07:30:00 tot 2021-03-15T21:00:00,2021-03-16T07:30:00 tot 2021-03-16T21:00:00,2021-03-17T07:30:00 tot 2021-03-17T21:00:00,Y,,Aanwijskaart,"Leesloep, lamp",Y,8,Utrecht,Y,"Team Verkiezingen, verkiezingen@utrecht.nl 030-2862002, Publiekszaken/Team Verkiezingen, Postbus 16200 3500 CE Utrecht",https://www.utrecht.nl/bestuur-en-organisatie/verkiezingen,,NLODSGM0344stembureaus20210317008,1fb7237e27604579b634410594632844
54167,Utrecht,GM0344,Stembureau,619.0,Museum Catharijneconvent,"woonfunctie, bijeenkomstfunctie",,,,,,344200000068463,Lange Nieuwstraat,38.0,,,3512PH,Utrecht,,136955.342447042,455480.028411837,5.1239243,52.0872892,,,,,,,,2021-03-17T07:30:00 tot 2021-03-17T21:00:00,Y,,Aanwijskaart,"Leesloep, lamp",Y,8,Utrecht,Y,"Team Verkiezingen, verkiezingen@utrecht.nl 030-2862002, Publiekszaken/Team Verkiezingen, Postbus 16200 3500 CE Utrecht",https://www.utrecht.nl/bestuur-en-organisatie/verkiezingen,,NLODSGM0344stembureaus20210317008,a89dc61ffc2846d4a9ea6e20cff7c379
54168,Utrecht,GM0344,Stembureau,622.0,Het Huis Utrecht,bijeenkomstfunctie,,,,,,344200000052890,Boorstraat,107.0,,,3513SE,Utrecht,,135666.875410684,456571.133208863,5.1050634,52.0970525,,,,,,,,2021-03-17T07:30:00 tot 2021-03-17T21:00:00,Y,,Aanwijskaart,"Leesloep, lamp",Y,8,Utrecht,Y,"Team Verkiezingen, verkiezingen@utrecht.nl 030-2862002, Publiekszaken/Team Verkiezingen, Postbus 16200 3500 CE Utrecht",https://www.utrecht.nl/bestuur-en-organisatie/verkiezingen,,NLODSGM0344stembureaus20210317008,9feadd5616ac436aa2858af3b0da8904
54169,Utrecht,GM0344,Stembureau,613.0,Spoorwegmuseum,bijeenkomstfunctie,,,,,,344200000041198,Maliebaanstation,16.0,,,3581XW,Utrecht,,137445.86418675,455552.841036054,5.1310774,52.0879594,,,,,,2021-03-17T07:30:00 tot 2021-03-17T21:00:00,2021-03-17T07:30:00 tot 2021-03-17T21:00:00,2021-03-17T07:30:00 tot 2021-03-17T21:00:00,Y,,Aanwijskaart,"Leesloep, lamp",Y,8,Utrecht,Y,"Team Verkiezingen, verkiezingen@utrecht.nl 030-2862002, Publiekszaken/Team Verkiezingen, Postbus 16200 3500 CE Utrecht",https://www.utrecht.nl/bestuur-en-organisatie/verkiezingen,,NLODSGM0344stembureaus20210317008,5646dfc4c5ce497f8eb96d1d08f5f8db
54170,Utrecht,GM0344,Stembureau,625.0,Indekerngezond,bijeenkomstfunctie,,,,,,344200000181734,Kopenhagenstraat,41.0,,,3541CE,Utrecht,,132843.912284299,456752.440240652,5.063855,52.0985763,,,,,,,,2021-03-17T07:30:00 tot 2021-03-17T21:00:00,Y,,Aanwijskaart,"Leesloep, lamp",Y,8,Utrecht,N,"Team Verkiezingen, verkiezingen@utrecht.nl 030-2862002, Publiekszaken/Team Verkiezingen, Postbus 16200 3500 CE Utrecht",https://www.utrecht.nl/bestuur-en-organisatie/verkiezingen,,NLODSGM0344stembureaus20210317008,c5d3b30d13794476ba19c4ab2dc594d8
54171,Utrecht,GM0344,Stembureau,629.0,Bibliotheek Neude,"bijeenkomstfunctie, winkelfunctie",,,,,,344200000141392,Neude,11.0,,,3512AE,Utrecht,,136563.963872802,456131.077118059,5.1181788,52.0931279,,,,,,,,2021-03-17T07:30:00 tot 2021-03-17T21:00:00,Y,,Aanwijskaart,"Leesloep, lamp",Y,8,Utrecht,Y,"Team Verkiezingen, verkiezingen@utrecht.nl 030-2862002, Publiekszaken/Team Verkiezingen, Postbus 16200 3500 CE Utrecht",https://www.utrecht.nl/bestuur-en-organisatie/verkiezingen,,NLODSGM0344stembureaus20210317008,7e91272b8f704b9e8c1b0d2dcb3fcedd
54172,Utrecht,GM0344,Afgiftepunt,,Wijkservicecentrum Vleuten-De Meern,"bijeenkomstfunctie, kantoorfunctie",,,,,,344200000149573,Dorpsplein,1.0,,,3451BK,Vleuten,,129239.373988569,457733.986892079,5.0111768,52.1072423,2021-03-10T09:00:00 tot 2021-03-10T17:00:00,2021-03-11T09:00:00 tot 2021-03-11T17:00:00,2021-03-12T09:00:00 tot 2021-03-12T17:00:00,,,2021-03-15T09:00:00 tot 2021-03-15T17:00:00,2021-03-16T09:00:00 tot 2021-03-16T17:00:00,2021-03-17T07:30:00 tot 2021-03-17T21:00:00,Y,,Aanwijskaart,"Leesloep, lamp",Y,8,Utrecht,N,"Team Verkiezingen, verkiezingen@utrecht.nl 030-2862002, Publiekszaken/Team Verkiezingen, Postbus 16200 3500 CE Utrecht",https://www.utrecht.nl/bestuur-en-organisatie/verkiezingen,,NLODSGM0344stembureaus20210317008,8c448722781b42488be49f05838467df
54173,Utrecht,GM0344,Stembureau,634.0,De Wilg,"onderwijsfunctie, overige gebruiksfunctie",,,,,,344200000142572,Mecklenburglaan,3.0,,,3581NV,Utrecht,,137905.143997834,455150.050487757,5.1377987,52.0843535,,,,,,,,2021-03-17T07:30:00 tot 2021-03-17T21:00:00,Y,,Aanwijskaart,"Leesloep, lamp",Y,8,Utrecht,Y,"Team Verkiezingen, verkiezingen@utrecht.nl 030-2862002, Publiekszaken/Team Verkiezingen, Postbus 16200 3500 CE Utrecht",https://www.utrecht.nl/bestuur-en-organisatie/verkiezingen,,NLODSGM0344stembureaus20210317008,d23788915bcf41f7a9ab707a1c526192
54174,Utrecht,GM0344,Stembureau,635.0,Zimihc Stefanus,bijeenkomstfunctie,,,,,,344200000127314,Braziliëdreef,2.0,,,3563CK,Utrecht,,135506.435457316,458956.462913271,5.1025856,52.118486,,,,,,,,2021-03-17T07:30:00 tot 2021-03-17T21:00:00,Y,,Aanwijskaart,"Leesloep, lamp",Y,8,Utrecht,Y,"Team Verkiezingen, verkiezingen@utrecht.nl 030-2862002, Publiekszaken/Team Verkiezingen, Postbus 16200 3500 CE Utrecht",https://www.utrecht.nl/bestuur-en-organisatie/verkiezingen,,NLODSGM0344stembureaus20210317008,2712a3619b6d4f798bbb5d67464fcfb6
54175,Utrecht,GM0344,Stembureau,638.0,Olympos,"bijeenkomstfunctie, onderwijsfunctie",,,,,,344200000146604,Uppsalalaan,3.0,,,3584CT,Utrecht,,140466.194683303,455898.226432492,5.1751309,52.0911512,,,,,,,,2021-03-17T07:30:00 tot 2021-03-17T21:00:00,Y,,Aanwijskaart,"Leesloep, lamp",Y,8,Utrecht,Y,"Team Verkiezingen, verkiezingen@utrecht.nl 030-2862002, Publiekszaken/Team Verkiezingen, Postbus 16200 3500 CE Utrecht",https://www.utrecht.nl/bestuur-en-organisatie/verkiezingen,,NLODSGM0344stembureaus20210317008,74c6ff02f9ed4f53a2df571dab45c3f2
54176,Utrecht,GM0344,Stembureau,639.0,Kampong Cricket,bijeenkomstfunctie,,,,,,344200000170056,Mytylweg,17.0,,,3585LM,Utrecht,,138967.899288544,454264.158507343,5.1533452,52.0764229,,,,,,,,2021-03-17T07:30:00 tot 2021-03-17T21:00:00,Y,,Aanwijskaart,"Leesloep, lamp",N,8,Utrecht,N,"Team Verkiezingen, verkiezingen@utrecht.nl 030-2862002, Publiekszaken/Team Verkiezingen, Postbus 16200 3500 CE Utrecht",https://www.utrecht.nl/bestuur-en-organisatie/verkiezingen,,NLODSGM0344stembureaus20210317008,6f21fb1924a14716879135548770d624
54177,Utrecht,GM0344,Stembureau,641.0,Vechtclub XL,"bijeenkomstfunctie, industriefunctie",,,,,,344200000168238,Europalaan,2.0,B,,3526KS,Utrecht,,135700.39577223,454184.038317943,5.1056875999999995,52.0755986,,,,,,2021-03-15T07:30:00 tot 2021-03-15T21:00:00,2021-03-16T07:30:00 tot 2021-03-16T21:00:00,2021-03-17T07:30:00 tot 2021-03-17T21:00:00,Y,,Aanwijskaart,"Leesloep, lamp",Y,8,Utrecht,Y,"Team Verkiezingen, verkiezingen@utrecht.nl 030-2862002, Publiekszaken/Team Verkiezingen, Postbus 16200 3500 CE Utrecht",https://www.utrecht.nl/bestuur-en-organisatie/verkiezingen,,NLODSGM0344stembureaus20210317008,c6d20f2bf9a64287b27569aaeca0ed4c
54178,Utrecht,GM0344,Stembureau,642.0,Centraal Museum,"bijeenkomstfunctie, kantoorfunctie",,,,,,344200000049301,Agnietenstraat,1.0,,,3512XA,Utrecht,,137093.294569646,455092.40106204,5.1259574,52.0838097,,,,,,,,2021-03-17T07:30:00 tot 2021-03-17T21:00:00,Y,,Aanwijskaart,"Leesloep, lamp",Y,8,Utrecht,Y,"Team Verkiezingen, verkiezingen@utrecht.nl 030-2862002, Publiekszaken/Team Verkiezingen, Postbus 16200 3500 CE Utrecht",https://www.utrecht.nl/bestuur-en-organisatie/verkiezingen,,NLODSGM0344stembureaus20210317008,753bcbfa69ca48bf9fca6642669dcc54
54179,Utrecht,GM0344,Stembureau,644.0,Hotel Mitland,"woonfunctie, logiesfunctie",,,,,,344200000037848,Ariënslaan,1.0,,,3573PT,Utrecht,,138353.637278031,456763.191462903,5.1442632,52.098866,,,,,,,,2021-03-17T07:30:00 tot 2021-03-17T21:00:00,Y,,Aanwijskaart,"Leesloep, lamp",Y,8,Utrecht,Y,"Team Verkiezingen, verkiezingen@utrecht.nl 030-2862002, Publiekszaken/Team Verkiezingen, Postbus 16200 3500 CE Utrecht",https://www.utrecht.nl/bestuur-en-organisatie/verkiezingen,,NLODSGM0344stembureaus20210317008,eca1ece4cb0741c9acea6862ede8e0c2
54180,Utrecht,GM0344,Stembureau,646.0,Utrechtse Voetbalvereniging Voorwaarts,"bijeenkomstfunctie, sportfunctie",,,,,,344200000002290,Ariënslaan,2.0,,,3573PT,Utrecht,,138379.658795524,456819.813780865,5.1446401999999996,52.0993757,,,,,,,,2021-03-17T07:30:00 tot 2021-03-17T21:00:00,Y,,Aanwijskaart,"Leesloep, lamp",N,8,Utrecht,Y,"Team Verkiezingen, verkiezingen@utrecht.nl 030-2862002, Publiekszaken/Team Verkiezingen, Postbus 16200 3500 CE Utrecht",https://www.utrecht.nl/bestuur-en-organisatie/verkiezingen,,NLODSGM0344stembureaus20210317008,52111364f36b49f5bc102d41372f338f
54181,Utrecht,GM0344,Stembureau,647.0,Tafeltennisvereniging SVE,"bijeenkomstfunctie, sportfunctie",,,,,,344200000084103,Loevenhoutsedijk,4.0,,,3552XE,Utrecht,,136098.446433855,457749.047231921,5.1112962,52.1076544,,,,,,,,2021-03-17T07:30:00 tot 2021-03-17T21:00:00,Y,,Aanwijskaart,"Leesloep, lamp",Y,8,Utrecht,Y,"Team Verkiezingen, verkiezingen@utrecht.nl 030-2862002, Publiekszaken/Team Verkiezingen, Postbus 16200 3500 CE Utrecht",https://www.utrecht.nl/bestuur-en-organisatie/verkiezingen,,NLODSGM0344stembureaus20210317008,7837dbcf2082429c85dfa046de435f96
54182,Utrecht,GM0344,Stembureau,649.0,Parel van Zuilen,"woonfunctie, bijeenkomstfunctie, industriefunctie",,,,,,344200000075619,Burgemeester Norbruislaan,17.0,,,3555ED,Utrecht,,133862.617686816,459054.52303739,5.0785791,52.119307,,,,,,,,2021-03-17T07:30:00 tot 2021-03-17T21:00:00,Y,,Aanwijskaart,"Leesloep, lamp",N,8,Utrecht,Y,"Team Verkiezingen, verkiezingen@utrecht.nl 030-2862002, Publiekszaken/Team Verkiezingen, Postbus 16200 3500 CE Utrecht",https://www.utrecht.nl/bestuur-en-organisatie/verkiezingen,,NLODSGM0344stembureaus20210317008,f2de79cc9db54f439ae99b7b039a6696
54183,Utrecht,GM0344,Stembureau,650.0,Sportcafe Tropical,"bijeenkomstfunctie, sportfunctie",,,,,,344200000041674,Verlengde Hoogravenseweg,203.0,,,3523KJ,Utrecht,,136464.037909743,453305.767136832,5.1168741,52.0677308,,,,,,,,2021-03-17T07:30:00 tot 2021-03-17T21:00:00,Y,,Aanwijskaart,"Leesloep, lamp",Y,8,Utrecht,Y,"Team Verkiezingen, verkiezingen@utrecht.nl 030-2862002, Publiekszaken/Team Verkiezingen, Postbus 16200 3500 CE Utrecht",https://www.utrecht.nl/bestuur-en-organisatie/verkiezingen,,NLODSGM0344stembureaus20210317008,3a5b78af2ea446ad856c5ff6d6665014
54184,Utrecht,GM0344,Stembureau,653.0,PI Wolvenplein,"woonfunctie, bijeenkomstfunctie, kantoorfunctie",,,,,,344200000088584,Wolvenplein,27.0,,,3512CK,Utrecht,,137062.201870136,456560.311918441,5.1254266,52.0970022,,,,,,,,2021-03-17T07:30:00 tot 2021-03-17T21:00:00,Y,,Aanwijskaart,"Leesloep, lamp",Y,8,Utrecht,Y,"Team Verkiezingen, verkiezingen@utrecht.nl 030-2862002, Publiekszaken/Team Verkiezingen, Postbus 16200 3500 CE Utrecht",https://www.utrecht.nl/bestuur-en-organisatie/verkiezingen,,NLODSGM0344stembureaus20210317008,2071f153080c487ab8e27f2b6b425b7a
54185,Utrecht,GM0344,Stembureau,655.0,De Boeg,bijeenkomstfunctie,,,,,,344200000181064,Tjalkstraat,20.0,,,3534PA,Utrecht,,134336.99874493,456666.108863121,5.0856502,52.0978581,,,,,,,,2021-03-17T07:30:00 tot 2021-03-17T21:00:00,Y,,Aanwijskaart,"Leesloep, lamp",Y,8,Utrecht,Y,"Team Verkiezingen, verkiezingen@utrecht.nl 030-2862002, Publiekszaken/Team Verkiezingen, Postbus 16200 3500 CE Utrecht",https://www.utrecht.nl/bestuur-en-organisatie/verkiezingen,,NLODSGM0344stembureaus20210317008,1e43017f9c1b458baa60455c90c45d5a
54186,Utrecht,GM0344,Stembureau,659.0,Triumfatorkerk,bijeenkomstfunctie,,,,,,344200000161421,Marco Pololaan,185.0,,,3526GB,Utrecht,,135169.182000582,453267.807881304,5.0979923,52.0673448,,,,,,,,2021-03-17T07:30:00 tot 2021-03-17T21:00:00,Y,,Aanwijskaart,"Leesloep, lamp",Y,8,Utrecht,Y,"Team Verkiezingen, verkiezingen@utrecht.nl 030-2862002, Publiekszaken/Team Verkiezingen, Postbus 16200 3500 CE Utrecht",https://www.utrecht.nl/bestuur-en-organisatie/verkiezingen,,NLODSGM0344stembureaus20210317008,7f3fd0545c6f4b4aae0e8c3bc69c938b
54187,Utrecht,GM0344,Stembureau,660.0,Muntgebouw Utrecht,"bijeenkomstfunctie, industriefunctie, kantoorfunctie",,,,,,344200000061739,Leidseweg,90.0,,,3531BG,Utrecht,,135040.767087406,455505.338587754,5.0959887,52.087451,,,,,,,,2021-03-17T07:30:00 tot 2021-03-17T21:00:00,Y,,Aanwijskaart,"Leesloep, lamp",Y,8,Utrecht,Y,"Team Verkiezingen, verkiezingen@utrecht.nl 030-2862002, Publiekszaken/Team Verkiezingen, Postbus 16200 3500 CE Utrecht",https://www.utrecht.nl/bestuur-en-organisatie/verkiezingen,,NLODSGM0344stembureaus20210317008,5e1d1efa61064d459cbcfbdd7d838570
54188,Utrecht,GM0344,Stembureau,667.0,Mattheuskerk,"woonfunctie, bijeenkomstfunctie, kantoorfunctie",,,,,,344200000144734,Hendrika van Tussenbroeklaan,1.0,A,,3533SZ,Utrecht,,134108.110086986,455137.455873486,5.0824035,52.0841101,,,,,,,,2021-03-17T07:30:00 tot 2021-03-17T21:00:00,Y,,Aanwijskaart,"Leesloep, lamp",Y,8,Utrecht,Y,"Team Verkiezingen, verkiezingen@utrecht.nl 030-2862002, Publiekszaken/Team Verkiezingen, Postbus 16200 3500 CE Utrecht",https://www.utrecht.nl/bestuur-en-organisatie/verkiezingen,,NLODSGM0344stembureaus20210317008,b81b8eeb384645898475cfab895e09ea
54189,Utrecht,GM0344,Stembureau,113.0,Wooncomplex Nieuw Plettenburgh,"industriefunctie, kantoorfunctie",,,,,,344200000160691,Oud-Wulvenlaan,4.0,,,3523XZ,Utrecht,,136948.054472118,453367.129347372,5.1239297,52.0682983,,,,,,,,2021-03-17T07:30:00 tot 2021-03-17T21:00:00,Y,,Aanwijskaart,"Leesloep, lamp",Y,8,Utrecht,Y,"Team Verkiezingen, verkiezingen@utrecht.nl 030-2862002, Publiekszaken/Team Verkiezingen, Postbus 16200 3500 CE Utrecht",https://www.utrecht.nl/bestuur-en-organisatie/verkiezingen,,NLODSGM0344stembureaus20210317008,9c2fe618c8644f479e058b9095f201df
54190,Utrecht,GM0344,Stembureau,663.0,3 G Centrum,"bijeenkomstfunctie, industriefunctie, kantoorfunctie",,,,,,344200000136595,Bernadottelaan,23.0,,,3527GA,Utrecht,,134736.016558331,454105.815063885,5.0916254,52.0748611,,,,,,,,2021-03-17T07:30:00 tot 2021-03-17T21:00:00,Y,,Aanwijskaart,"Leesloep, lamp",Y,8,Utrecht,Y,"Team Verkiezingen, verkiezingen@utrecht.nl 030-2862002, Publiekszaken/Team Verkiezingen, Postbus 16200 3500 CE Utrecht",https://www.utrecht.nl/bestuur-en-organisatie/verkiezingen,,NLODSGM0344stembureaus20210317008,44824a69a70541bba841b56db93decfc
54191,Utrecht,GM0344,Stembureau,666.0,College Rechten van de Mens,"industriefunctie, kantoorfunctie",,,,,,344200000156115,Kleinesingel,1.0,,,3572CG,Utrecht,,137206.400863655,456659.194150178,5.1275258,52.0978956,,,,,,,,2021-03-17T07:30:00 tot 2021-03-17T21:00:00,Y,,"Gebarentolk, aanwijskaart","Leesloep, lamp",Y,8,Utrecht,Y,"Team Verkiezingen, verkiezingen@utrecht.nl 030-2862002, Publiekszaken/Team Verkiezingen, Postbus 16200 3500 CE Utrecht",https://www.utrecht.nl/bestuur-en-organisatie/verkiezingen,,NLODSGM0344stembureaus20210317008,c6246d2289794d7a9ed50cb1c4141212
54192,Utrecht,GM0344,Stembureau,668.0,Geertekerk,bijeenkomstfunctie,,,,,,344200000055782,Geertekerkhof,23.0,,,3511XC,Utrecht,,136739.679286408,455194.453669526,5.120793,52.0847154,,,,,,,,2021-03-17T07:30:00 tot 2021-03-17T21:00:00,Y,,Aanwijskaart,"Leesloep, lamp",Y,8,Utrecht,Y,"Team Verkiezingen, verkiezingen@utrecht.nl 030-2862002, Publiekszaken/Team Verkiezingen, Postbus 16200 3500 CE Utrecht",https://www.utrecht.nl/bestuur-en-organisatie/verkiezingen,,NLODSGM0344stembureaus20210317008,f164325e6d2a4e65bd42f07e5ce31c4c
54193,Utrecht,GM0344,Stembureau,669.0,Ulu Moskee,bijeenkomstfunctie,,,,,,344200000118092,Moskeeplein,89.0,,,3531BX,Utrecht,,135619.468490521,455995.155958832,5.1044043,52.091874,,,,,,,,2021-03-17T07:30:00 tot 2021-03-17T21:00:00,Y,,Aanwijskaart,"Leesloep, lamp",Y,8,Utrecht,Y,"Team Verkiezingen, verkiezingen@utrecht.nl 030-2862002, Publiekszaken/Team Verkiezingen, Postbus 16200 3500 CE Utrecht",https://www.utrecht.nl/bestuur-en-organisatie/verkiezingen,,NLODSGM0344stembureaus20210317008,c7d2ae81608d40e0b5e827f87c62ff5c
54194,Utrecht,GM0344,Stembureau,670.0,Tuindorpkerk,"woonfunctie, bijeenkomstfunctie",,,,,,344200000082937,Prof. Suringarlaan,1.0,,,3571WH,Utrecht,,137218.762412861,457449.220390738,5.127665,52.1049967,,,,,,,,2021-03-17T07:30:00 tot 2021-03-17T21:00:00,Y,,Aanwijskaart,"Leesloep, lamp",Y,8,Utrecht,Y,"Team Verkiezingen, verkiezingen@utrecht.nl 030-2862002, Publiekszaken/Team Verkiezingen, Postbus 16200 3500 CE Utrecht",https://www.utrecht.nl/bestuur-en-organisatie/verkiezingen,,NLODSGM0344stembureaus20210317008,0fef85cb2b674694a0bd9558cc9085b0
54195,Utrecht,GM0344,Stembureau,674.0,Bestuursgebouw UU,onderwijsfunctie,,,,,,344200000127073,Heidelberglaan,8.0,,,3584CS,Utrecht,,140486.229796363,455233.891710669,5.1754515,52.0851807,,,,,,,,2021-03-17T07:30:00 tot 2021-03-17T21:00:00,Y,,Aanwijskaart,"Leesloep, lamp",Y,8,Utrecht,Y,"Team Verkiezingen, verkiezingen@utrecht.nl 030-2862002, Publiekszaken/Team Verkiezingen, Postbus 16200 3500 CE Utrecht",https://www.utrecht.nl/bestuur-en-organisatie/verkiezingen,,NLODSGM0344stembureaus20210317008,6394a13e73dc406cbc053ce3a83080af
54196,Utrecht,GM0344,Stembureau,675.0,Vesting Meineszgebouw,onderwijsfunctie,,,,,,344200000105100,Princetonlaan,6.0,,,3584CB,Utrecht,,139870.414912149,455619.50427994,5.1664499,52.0886301,,,,,,,,2021-03-17T07:30:00 tot 2021-03-17T21:00:00,Y,,Aanwijskaart,"Leesloep, lamp",Y,8,Utrecht,Y,"Team Verkiezingen, verkiezingen@utrecht.nl 030-2862002, Publiekszaken/Team Verkiezingen, Postbus 16200 3500 CE Utrecht",https://www.utrecht.nl/bestuur-en-organisatie/verkiezingen,,NLODSGM0344stembureaus20210317008,d39bb95f8fbd4481ae743a77bfba44e1
54197,Utrecht,GM0344,Stembureau,677.0,Leger des Heils,bijeenkomstfunctie,,,,,,344200000131885,Marco Pololaan,115.0,,,3526GB,Utrecht,,135025.889092054,453456.810288071,5.0958915,52.0690384,,,,,,,,2021-03-17T07:30:00 tot 2021-03-17T21:00:00,Y,,Aanwijskaart,"Leesloep, lamp",Y,8,Utrecht,Y,"Team Verkiezingen, verkiezingen@utrecht.nl 030-2862002, Publiekszaken/Team Verkiezingen, Postbus 16200 3500 CE Utrecht",https://www.utrecht.nl/bestuur-en-organisatie/verkiezingen,,NLODSGM0344stembureaus20210317008,e013326c67e74bc8ad09e395f8996282
54198,Utrecht,GM0344,Stembureau,631.0,Burezina,onderwijsfunctie,,,,,,344200000001706,Jeanne d'Arcdreef,1.0,,,3561SB,Utrecht,,137154.421096507,458388.288539462,5.1266767,52.1134349,,,,,,,,2021-03-17T07:30:00 tot 2021-03-17T21:00:00,Y,,Aanwijskaart,"Leesloep, lamp",N,8,Utrecht,N,"Team Verkiezingen, verkiezingen@utrecht.nl 030-2862002, Publiekszaken/Team Verkiezingen, Postbus 16200 3500 CE Utrecht",https://www.utrecht.nl/bestuur-en-organisatie/verkiezingen,,NLODSGM0344stembureaus20210317008,270b3494e94a489aa2bdfa6962f7d27a
54199,Utrecht,GM0344,Stembureau,662.0,PVC st. de Noordpunt,"industriefunctie, sportfunctie",,,,,,344200000100613,Kanaalweg,174.0,,,3533HL,Utrecht,,133984.06073921,456186.418398881,5.0805291,52.0935334,,,,,,,,2021-03-17T07:30:00 tot 2021-03-17T21:00:00,Y,,Aanwijskaart,"Leesloep, lamp",Y,8,Utrecht,Y,"Team Verkiezingen, verkiezingen@utrecht.nl 030-2862002, Publiekszaken/Team Verkiezingen, Postbus 16200 3500 CE Utrecht",https://www.utrecht.nl/bestuur-en-organisatie/verkiezingen,,NLODSGM0344stembureaus20210317008,7a3d1f8d59be4437b99e0619ecde470f
54200,Utrecht,GM0344,Stembureau,664.0,Stadion Galgenwaard,"industriefunctie, sportfunctie",,,,,,344200000150825,Herculesplein,241.0,,,3584AA,Utrecht,,138486.430046728,454560.436530541,5.1463078,52.0790717,,,,,,,,2021-03-17T07:30:00 tot 2021-03-17T21:00:00,Y,,Aanwijskaart,"Leesloep, lamp",Y,8,Utrecht,Y,"Team Verkiezingen, verkiezingen@utrecht.nl 030-2862002, Publiekszaken/Team Verkiezingen, Postbus 16200 3500 CE Utrecht",https://www.utrecht.nl/bestuur-en-organisatie/verkiezingen,,NLODSGM0344stembureaus20210317008,7a906c7296b94cee99348b5aba796f7e
54201,Utrecht,GM0344,Stembureau,679.0,St. Barbara,"woonfunctie, industriefunctie",,,,,,344200000076670,Prinsesselaan,2.0,,,3583GZ,Utrecht,,138191.74149457,456328.630712059,5.1419219,52.0949553,,,,,,,,2021-03-17T07:30:00 tot 2021-03-17T21:00:00,Y,,Aanwijskaart,"Leesloep, lamp",Y,8,Utrecht,Y,"Team Verkiezingen, verkiezingen@utrecht.nl 030-2862002, Publiekszaken/Team Verkiezingen, Postbus 16200 3500 CE Utrecht",https://www.utrecht.nl/bestuur-en-organisatie/verkiezingen,,NLODSGM0344stembureaus20210317008,0fc96b67fb684839b7cfcda9de81ce94
54202,Utrecht,GM0344,Stembureau,673.0,VV Elinkwijk,"bijeenkomstfunctie, sportfunctie",,,,,,344200000043229,Amsterdamsestraatweg,1015.0,,,3555HT,Utrecht,,133047.763767986,459178.515668785,5.0666737,52.1203897,,,,,,2021-03-15T07:30:00 tot 2021-03-15T21:00:00,2021-03-16T07:30:00 tot 2021-03-16T21:00:00,2021-03-17T07:30:00 tot 2021-03-17T21:00:00,Y,,Aanwijskaart,"Leesloep, lamp",Y,8,Utrecht,Y,"Team Verkiezingen, verkiezingen@utrecht.nl 030-2862002, Publiekszaken/Team Verkiezingen, Postbus 16200 3500 CE Utrecht",https://www.utrecht.nl/bestuur-en-organisatie/verkiezingen,,NLODSGM0344stembureaus20210317008,e5f2b7e7c9de4c658dc856122b0f5480
54203,Utrecht,GM0344,Stembureau,671.0,VV De Meern,"bijeenkomstfunctie, sportfunctie",,,,,,344200000122794,Loenenseboslaan,2.0,,,3454NT,De Meern,,130512.342960579,455931.158403616,5.0298874,52.0910965,,,,,,2021-03-15T07:30:00 tot 2021-03-15T21:00:00,2021-03-16T07:30:00 tot 2021-03-16T21:00:00,2021-03-17T07:30:00 tot 2021-03-17T21:00:00,Y,,Aanwijskaart,"Leesloep, lamp",Y,8,Utrecht,Y,"Team Verkiezingen, verkiezingen@utrecht.nl 030-2862002, Publiekszaken/Team Verkiezingen, Postbus 16200 3500 CE Utrecht",https://www.utrecht.nl/bestuur-en-organisatie/verkiezingen,,NLODSGM0344stembureaus20210317008,058725a500374c0f9ad997427afa0104
54204,Utrecht,GM0344,Afgiftepunt,,Wijkbureau Noordwest,"industriefunctie, kantoorfunctie",,,,,,344200000034575,Ondiep-Zuidzijde,6.0,,,3551BW,Utrecht,,135164.102323805,457193.667168346,5.09769,52.10263,2021-03-10T09:00:00 tot 2021-03-10T17:00:00,2021-03-11T09:00:00 tot 2021-03-11T17:00:00,2021-03-12T09:00:00 tot 2021-03-12T17:00:00,,,2021-03-15T09:00:00 tot 2021-03-15T17:00:00,2021-03-16T09:00:00 tot 2021-03-16T17:00:00,2021-03-17T07:30:00 tot 2021-03-17T21:00:00,Y,,Aanwijskaart,"Leesloep, lamp",Y,8,Utrecht,N,"Team Verkiezingen, verkiezingen@utrecht.nl 030-2862002, Publiekszaken/Team Verkiezingen, Postbus 16200 3500 CE Utrecht",https://www.utrecht.nl/bestuur-en-organisatie/verkiezingen,,NLODSGM0344stembureaus20210317008,9af34e0d22ba418e8c5a12bb2f01fba5
54205,Utrecht,GM0344,Afgiftepunt,,Wijkbureau Overvecht,"industriefunctie, kantoorfunctie",,,,,,344200000146722,Zamenhofdreef,17.0,,,3562JT,Utrecht,,136172.084129732,458492.61169403,5.11233,52.11434,2021-03-10T09:00:00 tot 2021-03-10T17:00:00,2021-03-11T09:00:00 tot 2021-03-11T17:00:00,2021-03-12T09:00:00 tot 2021-03-12T17:00:00,,,2021-03-15T09:00:00 tot 2021-03-15T17:00:00,2021-03-16T09:00:00 tot 2021-03-16T17:00:00,2021-03-17T07:30:00 tot 2021-03-17T21:00:00,Y,,Aanwijskaart,"Leesloep, lamp",Y,8,Utrecht,N,"Team Verkiezingen, verkiezingen@utrecht.nl 030-2862002, Publiekszaken/Team Verkiezingen, Postbus 16200 3500 CE Utrecht",https://www.utrecht.nl/bestuur-en-organisatie/verkiezingen,,NLODSGM0344stembureaus20210317008,c6281d531bb6454d8c27ea4229b2f468
54206,Utrecht,GM0344,Afgiftepunt,,Wijkbureau Oost en Noordoost,"industriefunctie, kantoorfunctie",,,,,,344200000060491,F.C. Dondersstraat,1.0,,,3572JA,Utrecht,,137984.38560383,456448.906502885,5.13889,52.09603,2021-03-10T09:00:00 tot 2021-03-10T17:00:00,2021-03-11T09:00:00 tot 2021-03-11T17:00:00,2021-03-12T09:00:00 tot 2021-03-12T17:00:00,,,2021-03-15T09:00:00 tot 2021-03-15T17:00:00,2021-03-16T09:00:00 tot 2021-03-16T17:00:00,2021-03-17T07:30:00 tot 2021-03-17T21:00:00,Y,,Aanwijskaart,"Leesloep, lamp",Y,8,Utrecht,N,"Team Verkiezingen, verkiezingen@utrecht.nl 030-2862002, Publiekszaken/Team Verkiezingen, Postbus 16200 3500 CE Utrecht",https://www.utrecht.nl/bestuur-en-organisatie/verkiezingen,,NLODSGM0344stembureaus20210317008,5d075a1be12245bd92f4b9a399e97a2a
54207,Utrecht,GM0344,Afgiftepunt,,Wijkbureau Zuid,bijeenkomstfunctie,,,,,,344200000161944,'t Goylaan,75.0,,,3525AA,Utrecht,,136688.559584624,453091.228987958,5.12016,52.06581,2021-03-10T09:00:00 tot 2021-03-10T17:00:00,2021-03-11T09:00:00 tot 2021-03-11T17:00:00,2021-03-12T09:00:00 tot 2021-03-12T17:00:00,,,2021-03-15T09:00:00 tot 2021-03-15T17:00:00,2021-03-16T09:00:00 tot 2021-03-16T17:00:00,2021-03-17T07:30:00 tot 2021-03-17T21:00:00,Y,,Aanwijskaart,"Leesloep, lamp",Y,8,Utrecht,N,"Team Verkiezingen, verkiezingen@utrecht.nl 030-2862002, Publiekszaken/Team Verkiezingen, Postbus 16200 3500 CE Utrecht",https://www.utrecht.nl/bestuur-en-organisatie/verkiezingen,,NLODSGM0344stembureaus20210317008,5fe00fe230824ab0bd1b8f4a9f4066f0
54208,Utrecht,GM0344,Afgiftepunt,,Wijkbureau Zuidwest,bijeenkomstfunctie,,,,,,344200000171406,Al-Masoedilaan,188.0,,,3526GZ,Utrecht,,134988.51509191,453907.74129639,5.09532,52.07309,2021-03-10T09:00:00 tot 2021-03-10T17:00:00,2021-03-11T09:00:00 tot 2021-03-11T17:00:00,2021-03-12T09:00:00 tot 2021-03-12T17:00:00,,,2021-03-15T09:00:00 tot 2021-03-15T17:00:00,2021-03-16T09:00:00 tot 2021-03-16T17:00:00,2021-03-17T07:30:00 tot 2021-03-17T21:00:00,Y,,Aanwijskaart,"Leesloep, lamp",Y,8,Utrecht,N,"Team Verkiezingen, verkiezingen@utrecht.nl 030-2862002, Publiekszaken/Team Verkiezingen, Postbus 16200 3500 CE Utrecht",https://www.utrecht.nl/bestuur-en-organisatie/verkiezingen,,NLODSGM0344stembureaus20210317008,8df122243aab4fba94fb7f0a46f0d86f
54209,Utrecht,GM0344,Afgiftepunt,,Bibliotheek Leidsche Rijn,bijeenkomstfunctie,,,,,,344200000189242,Brusselplein,2.0,,,3541CJ,Utrecht,,132910.45487638,456692.475264391,5.06483,52.09804,2021-03-10T09:00:00 tot 2021-03-10T17:00:00,2021-03-11T09:00:00 tot 2021-03-11T17:00:00,2021-03-12T09:00:00 tot 2021-03-12T17:00:00,,,2021-03-15T09:00:00 tot 2021-03-15T17:00:00,2021-03-16T09:00:00 tot 2021-03-16T17:00:00,2021-03-17T07:30:00 tot 2021-03-17T21:00:00,Y,,Aanwijskaart,"Leesloep, lamp",Y,8,Utrecht,N,"Team Verkiezingen, verkiezingen@utrecht.nl 030-2862002, Publiekszaken/Team Verkiezingen, Postbus 16200 3500 CE Utrecht",https://www.utrecht.nl/bestuur-en-organisatie/verkiezingen,,NLODSGM0344stembureaus20210317008,e81f0cf4df05439b9418173dbe66d95f
54210,Utrecht,GM0344,Afgiftepunt,,Stadskantoor,"industriefunctie, kantoorfunctie",,,,,,344200000166576,Stadsplateau,1.0,,,3521AZ,Utrecht,,135847.758792033,455741.42225617,5.1077497,52.0896014,2021-03-10T09:00:00 tot 2021-03-10T17:00:00,2021-03-11T09:00:00 tot 2021-03-11T17:00:00,2021-03-12T09:00:00 tot 2021-03-12T17:00:00,,,2021-03-15T09:00:00 tot 2021-03-15T17:00:00,2021-03-16T09:00:00 tot 2021-03-16T17:00:00,2021-03-17T07:30:00 tot 2021-03-17T21:00:00,Y,,Aanwijskaart,"Leesloep, lamp",Y,8,Utrecht,N,"Team Verkiezingen, verkiezingen@utrecht.nl 030-2862002, Publiekszaken/Team Verkiezingen, Postbus 16200 3500 CE Utrecht",https://www.utrecht.nl/bestuur-en-organisatie/verkiezingen,,NLODSGM0344stembureaus20210317008,9877fa46100d4046aa4cd1bd0bc07486
54211,Utrecht,GM0344,Stembureau,701.0,Stemstraat XL,"industriefunctie, kantoorfunctie",,,,,,344200000123255,Orteliuslaan,1.0,,,3528BA,Utrecht,,134172.803154331,453618.471957767,5.08344,52.07046,,,,,,,,2021-03-17T07:30:00 tot 2021-03-17T21:00:00,Y,,Aanwijskaart,"Leesloep, lamp",N,8,Utrecht,N,"Team Verkiezingen, verkiezingen@utrecht.nl 030-2862002, Publiekszaken/Team Verkiezingen, Postbus 16200 3500 CE Utrecht",https://www.utrecht.nl/bestuur-en-organisatie/verkiezingen,,NLODSGM0344stembureaus20210317008,6a393bbb31ec4aaa8d0a8a94b1d2691f
54212,Utrecht,GM0344,Stembureau,702.0,Stemstraat Xl,"industriefunctie, kantoorfunctie",,,,,,344200000123255,Orteliuslaan,1.0,,,3528BA,Utrecht,,134172.803154331,453618.471957767,5.08344,52.07046,,,,,,,,2021-03-17T07:30:00 tot 2021-03-17T21:00:00,Y,,Aanwijskaart,"Leesloep, lamp",N,8,Utrecht,N,"Team Verkiezingen, verkiezingen@utrecht.nl 030-2862002, Publiekszaken/Team Verkiezingen, Postbus 16200 3500 CE Utrecht",https://www.utrecht.nl/bestuur-en-organisatie/verkiezingen,,NLODSGM0344stembureaus20210317008,633a3fa5eb0b4869995c959e2712bec0
54213,Utrecht,GM0344,Stembureau,703.0,Stemstraat XL,"industriefunctie, kantoorfunctie",,,,,,344200000123255,Orteliuslaan,1.0,,,3528BA,Utrecht,,134172.803154331,453618.471957767,5.08344,52.07046,,,,,,,,2021-03-17T07:30:00 tot 2021-03-17T21:00:00,Y,,Aanwijskaart,"Leesloep, lamp",N,8,Utrecht,N,"Team Verkiezingen, verkiezingen@utrecht.nl 030-2862002, Publiekszaken/Team Verkiezingen, Postbus 16200 3500 CE Utrecht",https://www.utrecht.nl/bestuur-en-organisatie/verkiezingen,,NLODSGM0344stembureaus20210317008,ec230dec576b411d92de6883bd20ee06
54214,Utrecht,GM0344,Stembureau,704.0,Stemstraat XL,"industriefunctie, kantoorfunctie",,,,,,344200000123255,Orteliuslaan,1.0,,,3528BA,Utrecht,,134172.803154331,453618.471957767,5.08344,52.07046,,,,,,,,2021-03-17T07:30:00 tot 2021-03-17T21:00:00,Y,,Aanwijskaart,"Leesloep, lamp",N,8,Utrecht,N,"Team Verkiezingen, verkiezingen@utrecht.nl 030-2862002, Publiekszaken/Team Verkiezingen, Postbus 16200 3500 CE Utrecht",https://www.utrecht.nl/bestuur-en-organisatie/verkiezingen,,NLODSGM0344stembureaus20210317008,31f14e61af3a457ab3f6f33af113e5ca
54215,Utrecht,GM0344,Stembureau,1.0,Theaterhuis de Berenkuil ,kantoorfunctie,,,,,,344200000138579,Biltstraat,166.0,,,3572BP,Utrecht,,137786.175732775,456423.097051804,5.1359988,52.0957919,,,,,,,,2021-03-17T07:30:00 tot 2021-03-17T21:00:00,Y,,,,,8,Utrecht,,verkiezingen@utrecht.nl,https://www.utrecht.nl/bestuur-en-organisatie/verkiezingen/,,NLODSGM0344stembureaus20210317008,ef61c99fe6fd4b649368f358b1033393
